name,state,city,office_address,telephone
Abbot,Maine,TRUE,"133 Main Road
PO Box 120
Abbot, ME 04406",(207) 876-3340
Acton,Maine,TRUE,"35 H Road
Acton, ME 04001",(207) 636-3131
Addison,Maine,TRUE,"334 Water St
PO Box 142
Addison, ME 04606",(207) 483-4678
Albany Township,Maine,TRUE,"1420 Hunts Corner Road
Albany Township, ME 04217",(207) 824-3191
Albion,Maine,TRUE,"22 Main St
Albion, ME 04910",(207) 437-2900
Alexander,Maine,TRUE,"50 Cooper Road
Alexander, ME 04694",(207) 454-3011
Alfred,Maine,TRUE,"16 Saco Road
PO Box 850
Alfred, ME 04002",(207) 324-5872
Allagash,Maine,TRUE,"1063 Allagash Rd
Allagash, ME 04774",(207) 398-3198
Alna,Maine,TRUE,"1568 Alna Road
Alna, ME 04535",(207) 586-5313
Alton,Maine,TRUE,"3352 Bennoch Road
Alton, ME 04468",(207) 394-2601
Amherst,Maine,TRUE,"638 Airline Rd
Amherst, ME 04605",(207) 584-2173
Amity,Maine,TRUE,"PO Box 488
Houlton, ME 04730",(207) 532-2485
Andover,Maine,TRUE,"19 Stilman Road
PO Box 219
Andover, ME 04216",(207) 392-3302
Anson,Maine,TRUE,"5 Kennebec Street
PO Box 297
Anson, ME 04911",(207) 696-3979
Appleton,Maine,TRUE,"2915 Sennebec Road
Appleton, ME 04862",(207) 785-4722
Arrowsic,Maine,TRUE,"340 Arrowsic Road
Arrowsic, ME 04530",(207) 443-4609
Arundel,Maine,TRUE,"468 Limerick Rd
Arundel, ME 04046",(207) 985-4201
Ashland,Maine,TRUE,"17 Bridgham St
PO Box 910
Ashland, ME 04732",(207) 435-2311
Athens,Maine,TRUE,"228 Dore Hill Road
Athens, ME 04912",(207) 654-3471
Atkinson,Maine,TRUE,"102 No Stagecoach Rd
Atkinson, ME 04426",(207) 564-7273
Auburn,Maine,TRUE,"60 Court St
Ste 150
Auburn, ME 04210",(207) 333-6600
Augusta,Maine,TRUE,"16 Cony St
Augusta, ME 04330",(207) 620-8199
Aurora,Maine,TRUE,"15 Silsby Hill Rd
Aurora, ME 04408",(207) 584-2334
Avon,Maine,TRUE,"1116 Rangeley Rd
PO Box 330
Phillips, ME 04966",(207) 639-5326
Baileyville,Maine,TRUE,"63 Broadway Street
PO Box 370
Baileyville, ME 04694",(207) 427-3442
Baldwin,Maine,TRUE,"534 Pequawket Trail
West Baldwin, ME 04091",(207) 625-3581
Bangor,Maine,TRUE,"73 Harlow Street
Bangor, ME 04401",(207) 992-4200
Bar Harbor,Maine,TRUE,"93 Cottage St Suite I
Bar Harbor, ME 04609",(207) 288-4098
Baring Plantation,Maine,TRUE,"39 Front St
Baring Plantation, ME 04694",(207) 454-2107
Bath,Maine,TRUE,"55 Front Street
Bath, ME 04530",(207) 443-8332
Beals,Maine,TRUE,"11 Big Pond Road
PO Box 189
Beals, ME 04611",(207) 497-2589
Beaver Cove,Maine,TRUE,"795 Lily Bay Rd 101
Beaver Cove, ME 04441",(207) 695-2880
Beddington,Maine,TRUE,"1951 State Hwy 193
Beddington, ME 04622",(207) 638-2514
Belfast,Maine,TRUE,"131 Church Street
Belfast, ME 04915",(207) 338-3370
Belgrade,Maine,TRUE,"990 Augusta Road
Belgrade, ME 04917",(207) 495-2258
Belmont,Maine,TRUE,"245 Fenwick Road
Belmont, ME 04952",(207) 342-5722
Benedicta Township,Maine,TRUE,"36 School Street Suite 1
Sherman, ME 04776",(207) 365-4260
Benton,Maine,TRUE,"1279 Clinton Ave
Benton, ME 04901",(207) 453-7191
Berwick,Maine,TRUE,"11 Sullivan Street
Berwick, ME 03901",(207) 698-1101
Bethel,Maine,TRUE,"19 Main St.
PO Box 1660
Bethel, ME 04217",(207) 824-2669
Biddeford,Maine,TRUE,"205 Main Street
Biddeford, ME 04005",(207) 284-9307
Big Lake Township,Maine,TRUE,"15 Depot
PO Box 408
Princeton, ME 04668",(207) 796-2744
Bingham,Maine,TRUE,"13 Murray Street
PO Box 652
Bingham, ME 04920",(207) 672-5519
Blaine,Maine,TRUE,"52 Military Road
PO Box 190
Blaine, ME 04734",(207) 425-2611
Blue Hill,Maine,TRUE,"18 Union Street
Blue Hill, ME 04614",(207) 374-2281
Boothbay,Maine,TRUE,"7 Corey Lane
PO Box 106
Boothbay, ME 04537",(207) 633-2051
Boothbay Harbor,Maine,TRUE,"11 Howard Street
Boothbay Harbor, ME 04538",(207) 633-3671
Bowdoin,Maine,TRUE,"23 Cornish Dr.
Bowdoin, ME 04287",(207) 212-6244
Bowdoinham,Maine,TRUE,"13 School Street
Bowdoinham, ME 04008",(207) 666-5531
Bowerbank,Maine,TRUE,"761 Bowerbank Rd.
Bowerbank, ME 04426",(207) 564-2074
Bradford,Maine,TRUE,"345 East Road
PO Box 26
Bradford, ME 04410",(207) 327-2121
Bradley,Maine,TRUE,"165 B Main St
PO Box 517
Bradley, ME 04411",(207) 827-7725
Bremen,Maine,TRUE,"208 Waldoboro
PO Box 171
Bremen, ME 04551",(207) 529-5945
Brewer,Maine,TRUE,"80 N Main St
Brewer, ME 04412",(207) 989-7050
Bridgewater,Maine,TRUE,"11 Bootfoot Road
PO Box 215
Bridgewater, ME 04735",(207) 429-9856
Bridgton,Maine,TRUE,"3 Chase Street Suite 1
Bridgton, ME 04009",(207) 647-8786
Brighton Plantation,Maine,TRUE,"310 Solon Rd
Brighton Plantation, ME 04912",(207) 654-2172
Bristol,Maine,TRUE,"1268 Bristol Road
PO Box 339
Bristol, ME 04539",(207) 563-5270
Brooklin,Maine,TRUE,"PO Box 219
23 Bay Road
Brooklin, ME 04616",(207) 359-8394
Brooks,Maine,TRUE,"15 Purple Heart Hwy
PO Box 5
Brooks, ME 04921",(207) 722-3254
Brooksville,Maine,TRUE,"PO Box 314
Brooksville, ME 04617",(207) 326-4518
Brookton Township,Maine,TRUE,"18 Central Street
Danforth, ME 04424",(207) 448-2321
Brownfield,Maine,TRUE,"82 Main Street
Brownfield, ME 04010",(207) 935-2007
Brownville,Maine,TRUE,"586 Main Rd
Brownville, ME 04414",(207) 965-2561
Brunswick,Maine,TRUE,"85 Union Street
Brunswick, ME 04011",(207) 725-6658
Buckfield,Maine,TRUE,"PO Box 179
Buckfield, ME 04220",(207) 336-2521
Bucksport,Maine,TRUE,"50 Main Street
PO Drawer X
Bucksport, ME 04416",(207) 469-7368
Burlington,Maine,TRUE,"Long Ridge Road
PO Box 70
Burlington, ME 04417",(207) 732-3985
Burnham,Maine,TRUE,"247 South Horseback Road
Burnham, ME 04922",(207) 948-2369
Buxton,Maine,TRUE,"185 Portland Road
Buxton, ME 04093",(207) 929-6171
Byron,Maine,TRUE,"1 Byron Village Rd
Byron, ME 04275",(207) 364-3194
Calais,Maine,TRUE,"11 Church St
PO Box 413
Calais, ME 04619",(207) 454-2521
Cambridge,Maine,TRUE,"202 Ripley Rd
Cambridge, ME 04923",(207) 277-3241
Camden,Maine,TRUE,"PO Box 1207
Camden, ME 04843",(207) 236-3353
Canaan,Maine,TRUE,"277 Main Street
PO Box 68
Canaan, ME 04924",(207) 474-8682
Canton,Maine,TRUE,"94 Turner Street
Canton, ME 04221",(207) 597-2920
Cape Elizabeth,Maine,TRUE,"PO Box 6260
Cape Elizabeth, ME 04107",(207) 799-7665
Caratunk,Maine,TRUE,"PO Box 180
Caratunk, ME 04925",(207) 672-3030
Caribou,Maine,TRUE,"25 High Street
Caribou, ME 04736",(207) 493-3324
Carmel,Maine,TRUE,"1 Safety Lane
PO Box 114
Carmel, ME 04419",(207) 848-3361
Carrabassett Valley,Maine,TRUE,"1001 Carriage Rd
Carrabassett Valley, ME 04947",(207) 235-2645
Carroll Plantation,Maine,TRUE,"306 Osgood Road
Carroll Plantation, ME 04487",(207) 738-4841
Carthage,Maine,TRUE,"703 A Carthage Road
Carthage, ME 04224",(207) 562-8874
Cary Plantation,Maine,TRUE,"74 Wilcox Road
Cary Plantation, ME 04471",(207) 521-0017
Casco,Maine,TRUE,"635 Meadow Road
Casco, ME 04015",(207) 627-4515
Castine,Maine,TRUE,"67 Court
PO Box 204
Castine, ME 04421",(207) 326-4502
Castle Hill,Maine,TRUE,"PO Box 500
Mapleton, ME 04757",(207) 764-3754
Caswell,Maine,TRUE,"1025 Van Buren Rd.
Caswell, ME 04750",(207) 325-4604
Chapman,Maine,TRUE,"PO Box 500
Mapleton, ME 04757",(207) 764-3754
Charleston,Maine,TRUE,"PO Box 120
Charleston, ME 04422",(207) 285-3637
Charlotte,Maine,TRUE,"71 Front St
Pembroke, ME 04666",(207) 726-2036
Chebeague Island,Maine,TRUE,"192 North Road
Chebeague Island, ME 04017",(207) 846-3148
Chelsea,Maine,TRUE,"560 Togus Road
Chelsea, ME 04330",(207) 582-4802
Cherryfield,Maine,TRUE,"PO Box 58
Cherryfield, ME 04622",(207) 546-2376
Chester,Maine,TRUE,"43 South Chester Rd
Chester, ME 04457",(207) 794-0052
Chesterville,Maine,TRUE,"409 Dutch Gap Road
Chesterville, ME 04938",(207) 778-2433
China,Maine,TRUE,"571 Lakeview Drive
China, ME 04358",(207) 445-2014
Clifton,Maine,TRUE,"135 Airline Rd
Clifton, ME 04428",(207) 843-0709
Clinton,Maine,TRUE,"27 Baker St
Clinton, ME 04927",(207) 426-8511
Codyville Plantation,Maine,TRUE,"PO Box 59
Topsfield, ME 04490",(207) 796-5157
Columbia,Maine,TRUE,"106 Epping Road
Columbia, ME 04623",(207) 483-2365
Columbia Falls,Maine,TRUE,"8 Point St
PO Box 100
Columbia Falls, ME 04623",(207) 483-4067
Connor Township,Maine,TRUE,"25 High Street
Caribou, ME 04736",(207) 493-3324
Cooper,Maine,TRUE,"793 Cooper Highway
Cooper, ME 04657",(207) 454-7703
Coplin Plantation,Maine,TRUE,"5 Currie Street
PO Box 319
Coplin Plantation, ME 04982",(207) 246-5141
Corinna,Maine,TRUE,"8 Levi Stewart Drive
Corinna, ME 04928",(207) 278-4183
Corinth,Maine,TRUE,"PO Box 309
Corinth, ME 04427",(207) 285-3271
Cornish,Maine,TRUE,"17 Maple Street
Cornish, ME 04020",(207) 625-4324
Cornville,Maine,TRUE,"910 Molunkus Road
Cornville, ME 04976",(207) 474-3275
Cranberry Isles,Maine,TRUE,"PO Box 56
Islesford, ME 04646",(207) 244-4475
Crawford,Maine,TRUE,"2252 Airline Rd
Crawford, ME 04694",(207) 454-8639
Cross Lake Township (T17 R5),Maine,TRUE,"1809 Caribou Road
New Canada, ME 04743",(207) 834-4004
Crystal,Maine,TRUE,"68 Houlton Road
Island Falls, ME 04747",(207) 463-2246
Cumberland,Maine,TRUE,"290 Tuttle Road
Cumberland, ME 04021",(207) 829-5559
Cushing,Maine,TRUE,"39 Cross Road
Cushing, ME 04563",(207) 354-2375
Cutler,Maine,TRUE,"2655 Cutler Road
PO Box 236
Cutler, ME 04626",(207) 259-3693
Cyr Plantation,Maine,TRUE,"537 Caribou Road
Cyr Plantation, ME 04785",(207) 868-5403
Dallas Plantation,Maine,TRUE,"436 Dallas Hill Road
PO Box 460
Rangeley, ME 04970",(207) 864-5991
Damariscotta,Maine,TRUE,"21 School Street
Damariscotta, ME 04543",(207) 563-5168
Danforth,Maine,TRUE,"18 Central Street
PO Box 117
Danforth, ME 04424",(207) 448-2321
Dayton,Maine,TRUE,"33 Clarks Mills Rd
Dayton, ME 04005",(207) 499-7526
Deblois,Maine,TRUE,"8 Lane Rte 193
Deblois, ME 04622",(207) 638-3801
Dedham,Maine,TRUE,"2073 Main Road Ste A
Dedham, ME 04429",(207) 843-6217
Deer Isle,Maine,TRUE,"PO Box 46
Deer Isle, ME 04627",(207) 348-6060
Denmark,Maine,TRUE,"62 East Main Street
Denmark, ME 04022",(207) 452-2163
Dennistown Plantation,Maine,TRUE,"PO Box 267
Jackman, ME 04945",(207) 668-4019
Dennysville,Maine,TRUE,"15 The Lane
Dennysville, ME 04628",(207) 726-2106
Detroit,Maine,TRUE,"35 South Main St
Detroit, ME 04929",(207) 257-4488
Dexter,Maine,TRUE,"23 Main
Dexter, ME 04930",(207) 924-7351
Dixfield,Maine,TRUE,"46 Main Street
PO Box 808
Dixfield, ME 04224",(207) 562-8151
Dixmont,Maine,TRUE,"758 Western Ave
PO Box 100
Dixmont, ME 04932",(207) 234-2294
Dover-Foxcroft,Maine,TRUE,"48 Morton Avenue Suite A
Dover-Foxcroft, ME 04426",(207) 564-3318
Dresden,Maine,TRUE,"Pob30 Gardiner Road 534
Dresden, ME 04342",(207) 737-4335
Drew Plantation,Maine,TRUE,"267 Center St
Drew Plantation, ME 04497",(207) 456-7337
Durham,Maine,TRUE,"630 Hallowell Rd
Durham, ME 04222",(207) 353-2561
Dyer Brook,Maine,TRUE,"864 Dyer Brook Rd
Dyer Brook, ME 04747",(207) 757-8302
Eagle Lake,Maine,TRUE,"PO Box 287
Eagle Lake, ME 04739",(207) 444-5125
East Machias,Maine,TRUE,"PO Box 117
East Machias, ME 04630",(207) 255-8598
East Millinocket,Maine,TRUE,"53 Main Street
East Millinocket, ME 04430",(207) 447-4083
Eastbrook,Maine,TRUE,"959 Eastbrook Rd.
Eastbrook, ME 04634",(207) 565-3307
Easton,Maine,TRUE,"3 Station Road
PO Box 127
Easton, ME 04740",(207) 488-6652
Eastport,Maine,TRUE,"22 Washington Street
Eastport, ME 04631",(207) 853-2300
Eddington,Maine,TRUE,"906 Main Road
Eddington, ME 04428",(207) 843-5233
Edgecomb,Maine,TRUE,"PO Box 139
Edgecomb, ME 04556",(207) 882-7018
Edinburg,Maine,TRUE,"711 Edinburg Road
Edinburg, ME 04448",(207) 732-4038
Edmunds Township,Maine,TRUE,"15 The Lane
Dennysville, ME 04628",(207) 726-2108
Eliot,Maine,TRUE,"1333 State Road
Eliot, ME 03903",(207) 439-1817
Ellsworth,Maine,TRUE,"1 City Hall Plaza
Ellsworth, ME 04605",(207) 667-2563
Embden,Maine,TRUE,"809 Embden Pond Road
Embden, ME 04958",(207) 566-5551
Enfield,Maine,TRUE,"789 Hammett Road
Enfield, ME 04493",(207) 732-4270
Etna,Maine,TRUE,"17 Shadow Lane
PO Box G
Etna, ME 04434",(207) 269-3551
Eustis,Maine,TRUE,"88 Main St.
PO Box 350
Stratton, ME 04982",(207) 246-4401
Exeter,Maine,TRUE,"PO Box 59
Exeter, ME 04435",(207) 379-2191
Fairfield,Maine,TRUE,"19 Lawrence Ave
Fairfield, ME 04937",(207) 453-7346
Falmouth,Maine,TRUE,"271 Falmouth Road
Falmouth, ME 04105",(207) 781-5253
Farmingdale,Maine,TRUE,"289 Maine Ave.
Farmingdale, ME 04344",(207) 582-2225
Farmington,Maine,TRUE,"153 Farmington Falls Road
Farmington, ME 04938",(207) 778-6539
Fayette,Maine,TRUE,"2589 Main Street
Fayette, ME 04349",(207) 685-4373
Fort Fairfield,Maine,TRUE,"18 Community Center Drive
Fort Fairfield, ME 04742",(207) 472-3800
Fort Kent,Maine,TRUE,"416 West Main Street
Fort Kent, ME 04743",(207) 834-3090
Frankfort,Maine,TRUE,"48a Main Road South
PO Box 218
Frankfort, ME 04438",(207) 223-5546
Franklin,Maine,TRUE,"34 Main Street
PO Box 206
Franklin, ME 04634",(207) 565-3663
Freedom,Maine,TRUE,"71 Pleasant Street
Freedom, ME 04941",(207) 382-6177
Freeport,Maine,TRUE,"30 Main Street
Freeport, ME 04032",(207) 865-4743
Frenchboro,Maine,TRUE,"PO Box 100
Frenchboro, ME 04635",(207) 334-2933
Frenchville,Maine,TRUE,"PO Box 97
Frenchville, ME 04745",(207) 543-7301
Friendship,Maine,TRUE,"PO Box 207
Friendship, ME 04547",(207) 832-7644
Frye Island,Maine,TRUE,"One Sunset Road
Frye Island, ME 04071",(207) 655-4551
Fryeburg,Maine,TRUE,"16 Lovewell Pond Road
Fryeburg, ME 04037",(207) 935-2805
Gardiner,Maine,TRUE,"6 Church Street
Gardiner, ME 04345",(207) 582-4200
Garfield Plantation,Maine,TRUE,"PO Box 704
Ashland, ME 04732",(207) 435-2142
Garland,Maine,TRUE,"108 Corinth Road
PO Box 36
Garland, ME 04939",(207) 924-3163
Georgetown,Maine,TRUE,"PO Box 436
Georgetown, ME 04548",(207) 371-2820
Gilead,Maine,TRUE,"8 Depot
Gilead, ME 04217",(207) 836-2115
Glenburn,Maine,TRUE,"144 Lakeview Road
Glenburn, ME 04401",(207) 942-2905
Glenwood Plantation,Maine,TRUE,"2247 Military Rd
Glenwood Plantation, ME 04497",(207) 456-7500
Gorham,Maine,TRUE,"75 South Street
Gorham, ME 04038",(207) 222-1670
Gouldsboro,Maine,TRUE,"59 Main Street/PO Box 68
Prospect Harbor, ME 04669",(207) 963-5589
Grand Isle,Maine,TRUE,"366 Main St
Grand Isle, ME 04746",(207) 895-3420
Grand Lake Stream Plantation,Maine,TRUE,"9 Brown Lane
Grand Lake Stream, ME 04668",(207) 796-2001
Gray,Maine,TRUE,"24 Main Street
Gray, ME 04039",(207) 657-3339
Great Pond,Maine,TRUE,"1348 Great Pond Road
PO Box 27
Aurora, ME 04408",(207) 584-5860
Greenbush,Maine,TRUE,"132 Military Rd
PO Box 230
Greenbush, ME 04418",(207) 826-2050
Greene,Maine,TRUE,"220 Main St
PO Box 510
Greene, ME 04236",(207) 946-5146
Greenville,Maine,TRUE,"7 Minden Street
PO Box 1109
Greenville, ME 04441",(207) 695-2421
Greenwood,Maine,TRUE,"593 Gore Road
Greenwood, ME 04255",(207) 875-2773
Guilford,Maine,TRUE,"4 School Street
PO Box 355
Guilford, ME 04443",(207) 876-2202
Hallowell,Maine,TRUE,"1 Winthrop Street
Hallowell, ME 04347",(207) 623-4021
Hamlin,Maine,TRUE,"1074 Hamlin Road
Hamlin, ME 04785",(207) 868-2740
Hammond,Maine,TRUE,"PO Box 827
Houlton, ME 04730",(207) 532-1104
Hampden,Maine,TRUE,"106 Western Avenue
Hampden, ME 04444",(207) 862-3034
Hancock,Maine,TRUE,"18 Point Rd
PO Box 68
Hancock, ME 04640",(207) 422-3393
Hanover,Maine,TRUE,"21 Ferry Road
PO Box 70
Hanover, ME 04217",(207) 364-8200
Harmony,Maine,TRUE,"3 Water
PO Box 14
Harmony, ME 04942",(207) 683-5681
Harpswell,Maine,TRUE,"263 Mountain Road
PO Box 39
Harpswell, ME 04079",(207) 833-5822
Harrington,Maine,TRUE,"PO Box 142
Harrington, ME 04643",(207) 483-2061
Harrison,Maine,TRUE,"20 Front St
PO Box 300
Harrison, ME 04040",(207) 583-2241
Hartford,Maine,TRUE,"1196 Main Street
Hartford, ME 04220",(207) 388-2674
Hartland,Maine,TRUE,"21 Elm Street
PO Box 280
Hartland, ME 04943",(207) 938-4401
Haynesville,Maine,TRUE,"16 Danforth Rd
Haynesville, ME 04497",(207) 448-2239
Hebron,Maine,TRUE,"351 Paris Road
PO Box 304
Hebron, ME 04238",(207) 966-3284
Hermon,Maine,TRUE,"333 Billings Road
PO Box 6300
Hermon, ME 04402",(207) 848-1010
Hersey,Maine,TRUE,"PO Box 236
Patten, ME 04765",(207) 528-2215
Highland Plantation,Maine,TRUE,"130 Howard Hill Road
Highland Plantation, ME 04961",(207) 628-4234
Hiram,Maine,TRUE,"25 Allard Circle
Hiram, ME 04041",(207) 625-4663
Hodgdon,Maine,TRUE,"179 Hodgdon Mills Rd.
Hodgdon, ME 04730",(207) 532-6498
Holden,Maine,TRUE,"570 Main Rd
Holden, ME 04429",(207) 843-5151
Hollis,Maine,TRUE,"34 Town Farm Rd
Hollis, ME 04042",(207) 929-8552
Hope,Maine,TRUE,"441 441 Camden Rd
Hope, ME 04847",(207) 763-4199
Houlton,Maine,TRUE,"21 Water Street
Houlton, ME 04730",(207) 532-7111
Howland,Maine,TRUE,"8 Main Street
PO Box 386
Howland, ME 04448",(207) 732-4112
Hudson,Maine,TRUE,"2150 Hudson Road
Hudson, ME 04449",(207) 327-1284
Indian Township,Maine,TRUE,"PO Box 301
Indian Township, ME 04668",(207) 796-6101
Industry,Maine,TRUE,"1033 Industry Road
Industry, ME 04938",(207) 778-5050
Island Falls,Maine,TRUE,"68 Houlton Rd
PO Box 100
Island Falls, ME 04747",(207) 463-2246
Isle Au Haut,Maine,TRUE,"PO Box 71
Isle Au Haut, ME 04645",(207) 335-5001
Islesboro,Maine,TRUE,"150 Main Road
Islesboro, ME 04848",(207) 734-2253
Jackman,Maine,TRUE,"369 Main Street
PO Box 269
Jackman, ME 04945",(207) 668-2111
Jackson,Maine,TRUE,"Moosehead Trail
PO Box 393
Brooks, ME 04921",(207) 722-3439
Jay,Maine,TRUE,"340 Main St.
Jay, ME 04239",(207) 897-6785
Jefferson,Maine,TRUE,"PO Box 77
Jefferson, ME 04348",(207) 549-7401
Jonesboro,Maine,TRUE,"PO Box 86
Jonesboro, ME 04648",(207) 434-5141
Jonesport,Maine,TRUE,"70 Snare Creek Lane
Lower Level
Jonesport, ME 04649",(207) 497-5926
Kenduskeag,Maine,TRUE,"PO Box 308
Kenduskeag, ME 04450",(207) 884-7947
Kennebunk,Maine,TRUE,"1 Summer Street
Kennebunk, ME 04043",(207) 604-1326
Kennebunkport,Maine,TRUE,"PO Box 566
Kennebunkport, ME 04046",(207) 967-1610
Kingfield,Maine,TRUE,"38 School Street
Kingfield, ME 04947",(207) 265-4637
Kingman Township,Maine,TRUE,"778 Tucker Ridge Road
Webster Plantation, ME 04487",(207) 403-0551
Kingsbury Plantation,Maine,TRUE,"PO Box 355
Guilford, ME 04443",(207) 277-3821
Kittery,Maine,TRUE,"200 Rogers Road
Kittery, ME 03904",(207) 475-1328
Knox,Maine,TRUE,"10 Abbott Rd
Knox, ME 04986",(207) 568-3907
Lagrange,Maine,TRUE,"PO Box 40
Lagrange, ME 04453",(207) 943-2085
Lake View Plantation,Maine,TRUE,"2061 Lakview Road
Lake View Plantation, ME 04463",(207) 943-5538
Lakeville,Maine,TRUE,"364 Duck Lake Rd
Lakeville, ME 04487",(207) 738-5047
Lamoine,Maine,TRUE,"606 Douglas Highway
Lamoine, ME 04605",(207) 667-2242
Lebanon,Maine,TRUE,"15 Upper Guinea Rd
Lebanon, ME 04027",(207) 457-6082
Lee,Maine,TRUE,"29 Winn Road
Lee, ME 04455",(207) 738-2134
Leeds,Maine,TRUE,"8 Community Drive
PO Box 206
Leeds, ME 04263",(207) 524-5171
Levant,Maine,TRUE,"PO Box 220
Levant, ME 04456",(207) 884-7660
Lewiston,Maine,TRUE,"27 Pine Street
Lewiston, ME 04240",(207) 513-3124
Liberty,Maine,TRUE,"7 Water Street
PO Box 116
Liberty, ME 04949",(207) 589-4318
Limerick,Maine,TRUE,"55 Washington St
Limerick, ME 04048",(207) 793-2166
Limestone,Maine,TRUE,"93 Main Street
Limestone, ME 04750",(207) 325-4704
Limington,Maine,TRUE,"PO Box 240
Limington, ME 04049",(207) 776-0686
Lincoln,Maine,TRUE,"63 Main
Lincoln, ME 04457",(207) 794-3372
Lincoln Plantation,Maine,TRUE,"226 Wilsons Mills Road
Errol, NH 03579",(207) 486-9333
Lincolnville,Maine,TRUE,"493 Hope Rd
Lincolnville, ME 04849",(207) 763-3555
Linneus,Maine,TRUE,"1185 Hodgdon Mills Rd
Linneus, ME 04730",(207) 532-6182
Lisbon,Maine,TRUE,"300 Lisbon St
Lisbon, ME 04250",(207) 353-3000
Litchfield,Maine,TRUE,"2400 Hallowell Road
Litchfield, ME 04350",(207) 268-4721
Littleton,Maine,TRUE,"1536 US Hwy 1
Littleton, ME 04730",(207) 538-9862
Livermore,Maine,TRUE,"10 Crash Road
Livermore, ME 04253",(207) 897-3207
Livermore Falls,Maine,TRUE,"2 Main St
Livermore Falls, ME 04254",(207) 897-3321
Long Island,Maine,TRUE,"PO Box 263
Long Island, ME 04050",(207) 766-5820
Lovell,Maine,TRUE,"1069 Main Street
Lovell, ME 04051",(207) 925-6272
Lowell,Maine,TRUE,"PO Box 166
Burlington, ME 04417",(207) 732-5177
Lubec,Maine,TRUE,"40 School Street
Lubec, ME 04652",(207) 733-2341
Ludlow,Maine,TRUE,"PO Box 487
Houlton, ME 04730",(207) 532-7743
Lyman,Maine,TRUE,"11 South Waterboro Road
Lyman, ME 04002",(207) 247-0643
Machias,Maine,TRUE,"PO Box 418
Machias, ME 04654",(207) 255-6621
Machiasport,Maine,TRUE,"PO Box 267
Machiasport, ME 04655",(207) 255-4516
Macwahoc Plantation,Maine,TRUE,"445 US Hwy 2
Macwahoc Plantation, ME 04451",(207) 765-2581
Madawaska,Maine,TRUE,"328 St Thomas St Ste 101
Madawaksa, ME 04756",(207) 728-6351
Madawaska Lake,Maine,TRUE,"62 School Street
Stockholm, ME 04783",(207) 896-5659
Madison,Maine,TRUE,"26 Weston Avenue
PO Box 190
Madison, ME 04950",(207) 696-5622
Magalloway Plantation,Maine,TRUE,"226 Wilsons Mills Road
Errol, NH 03579",(207) 486-9333
Manchester,Maine,TRUE,"12 Readfield Rd./PO Box 18
Manchester, ME 04351",(207) 622-1894
Mapleton,Maine,TRUE,"PO Box 500
Mapleton, ME 04757",(207) 764-3754
Mariaville,Maine,TRUE,"1686 Mariaville Road
Mariaville, ME 04605",(207) 537-2107
Mars Hill,Maine,TRUE,"37 Main St
PO Box 449
Mars Hill, ME 04758",(207) 425-3731
Marshfield,Maine,TRUE,"187 Northfield Rd
Marshfield, ME 04654",(207) 255-4779
Masardis,Maine,TRUE,"26 School St
Masardis, ME 04732",(207) 435-2841
Matinicus Isle Plantation,Maine,TRUE,"PO Box 198
Matinicus, ME 04851",(207) 366-3970
Mattawamkeag,Maine,TRUE,"PO Box 260
Mattawamkeag, ME 04459",(207) 736-2464
Maxfield,Maine,TRUE,"231 River Rd
Maxfield, ME 04453",(207) 732-5639
Mechanic Falls,Maine,TRUE,"108 Lewiston Street
Mechanic Falls, ME 04256",(207) 345-2871
Meddybemps,Maine,TRUE,"PO Box 849
Meddybemps, ME 04657",(207) 454-8447
Medford,Maine,TRUE,"1015 Medford Center Road
Medford, ME 04463",(207) 732-4079
Medway,Maine,TRUE,"4 School Street
Medway, ME 04460",(207) 746-9531
Mercer,Maine,TRUE,"1015 Beech Hill Road Suite A
Mercer, ME 04957",(207) 587-2911
Merrill,Maine,TRUE,"3391 Route 2
PO Box 239
Merrill, ME 04780",(207) 757-8286
Mexico,Maine,TRUE,"134 Main Street
PO Box 251
Mexico, ME 04257",(207) 364-7972
Milbridge,Maine,TRUE,"18 School Street
PO Box 66
Milbridge, ME 04658",(207) 546-2422
Milford,Maine,TRUE,"62 Davenport St
PO Box 336
Milford, ME 04461",(207) 827-2072
Millinocket,Maine,TRUE,"197 Penobscot Avenue
Millinocket, ME 04462",(207) 723-7007
Milo,Maine,TRUE,"6 Pleasant Street
Milo, ME 04463",(207) 943-2202
Minot,Maine,TRUE,"329 Woodman Hill Rd
Minot, ME 04258",(207) 345-3305
Monhegan Island Plantation,Maine,TRUE,"PO Box 322
Monhegan, ME 04852",(207) 594-8833
Monmouth,Maine,TRUE,"PO Box 270
Monmouth, ME 04259",(207) 933-2206
Monroe,Maine,TRUE,"8 Swanlake Ave
Monroe, ME 04951",(207) 525-3515
Monson,Maine,TRUE,"10 Tenney Hill Road
PO Box 308
Monson, ME 04464",(207) 997-3641
Monticello,Maine,TRUE,"Us Hwy 1
PO Box 99
Monticello, ME 04760",(207) 538-9500
Montville,Maine,TRUE,"414 Center Road
Montville, ME 04941",(207) 342-5544
Moose River,Maine,TRUE,"705 Main Street
PO Box 267
Moose River, ME 04945",(207) 668-4019
Moro Plantation,Maine,TRUE,"PO Box 542
Patten, ME 04765",(207) 528-2215
Morrill,Maine,TRUE,"PO Box 59
Morrill, ME 04952",(207) 342-3300
Moscow,Maine,TRUE,"110 Canada Road
Moscow, ME 04920",(207) 672-4834
Mount Chase,Maine,TRUE,"1094 Shin Pond Rd
Mount Chase, ME 04765",(207) 528-2225
Mount Desert,Maine,TRUE,"PO Box 248
Northeast Harbor, ME 04662",(207) 276-5531
Mount Vernon,Maine,TRUE,"1997 North Road
Mount Vernon, ME 04352",(207) 293-2379
Naples,Maine,TRUE,"15 Village Green Lane
PO Box 1757
Naples, ME 04055",(207) 693-6364
Nashville Plantation,Maine,TRUE,"20 School St
Portage Lake, ME 04768",(207) 435-4361
New Canada,Maine,TRUE,"1809 Caribou Road
New Canada, ME 04743",(207) 834-4004
New Gloucester,Maine,TRUE,"385 Intervale Road
New Gloucester, ME 04260",(207) 926-4126
New Limerick,Maine,TRUE,"PO Box 121
New Limerick, ME 04761",(207) 532-3303
New Portland,Maine,TRUE,"901 River Road
New Portland, ME 04961",(207) 628-4441
New Sharon,Maine,TRUE,"PO Box 7
New Sharon, ME 04955",(207) 778-4046
New Sweden,Maine,TRUE,"50 Station Road
New Sweden, ME 04762",(207) 896-3306
New Vineyard,Maine,TRUE,"PO Box 262
New Vineyard, ME 04956",(207) 652-2222
Newburgh,Maine,TRUE,"2220 Western Ave.
Newburgh, ME 04444",(207) 234-4151
Newcastle,Maine,TRUE,"PO Box 386
Newcastle, ME 04553",(207) 563-3441
Newfield,Maine,TRUE,"637 Water Street
West Newfield, ME 04095",(207) 793-4348
Newport,Maine,TRUE,"23 Water St.
Newport, ME 04953",(207) 368-4410
Newry,Maine,TRUE,"422 Bear River Road
Newry, ME 04261",(207) 824-3123
Nobleboro,Maine,TRUE,"192 U S Highway 1
Nobleboro, ME 04555",(207) 563-8816
Norridgewock,Maine,TRUE,"PO Box 7
Norridgewock, ME 04957",(207) 634-2252
North Berwick,Maine,TRUE,"PO Box 422
North Berwick, ME 03906",(207) 676-3353
North Haven,Maine,TRUE,"16 Town Office Square
North Haven, ME 04853",(207) 867-4433
North Yarmouth,Maine,TRUE,"10 Village Square Road
North Yarmouth, ME 04097",(207) 829-3705
Northfield,Maine,TRUE,"PO Box 482
Machias, ME 04654",(207) 255-8844
Northport,Maine,TRUE,"16 Beech Hill Road
Northport, ME 04849",(207) 338-3819
Norway,Maine,TRUE,"19 Danforth Street
Norway, ME 04268",(207) 743-6651
Oakfield,Maine,TRUE,"80 School Street
PO Box 10
Oakfield, ME 04763",(207) 757-8479
Oakland,Maine,TRUE,"6 Cascade Mill Road
PO Box 187
Oakland, ME 04963",(207) 465-7357
Ogunquit,Maine,TRUE,"23 School Street
PO Box 875
Ogunquit, ME 03907",(207) 646-9546
Old Orchard Beach,Maine,TRUE,"1 Portland Avenue
Old Orchard Beach, ME 04064",(207) 934-4042
Old Town,Maine,TRUE,"265 Main Street
Old Town, ME 04468",(207) 827-3980
Orient,Maine,TRUE,"82 School House Rd
Orient, ME 04471",(207) 448-7729
Orland,Maine,TRUE,"25 School House Rd
PO Box 67
Orland, ME 04472",(207) 469-3186
Orono,Maine,TRUE,"59 Main St
Orono, ME 04473",(207) 866-2556
Orrington,Maine,TRUE,"1 Municipal Way
Orrington, ME 04474",(207) 825-3340
Osborn,Maine,TRUE,"16 Maple Lane
Osborn, ME 04605",(207) 584-3424
Otis,Maine,TRUE,"132 Otis Road
Otis, ME 04605",(207) 537-2211
Otisfield,Maine,TRUE,"403 State Route 121
Otisfield, ME 04270",(207) 539-2664
Owls Head,Maine,TRUE,"224 Ash Point Dr
Owls Head, ME 04854",(207) 594-7434
Oxbow North Township,Maine,TRUE,"26 School St
Masardis, ME 04732",(207) 435-2841
Oxford,Maine,TRUE,"85 Pleasant Street
PO Box 153
Oxford, ME 04270",(207) 539-4431
Palermo,Maine,TRUE,"45 N Palermo Rd
Palermo, ME 04354",(207) 993-2296
Palmyra,Maine,TRUE,"PO Box 6
Palmyra, ME 04965",(207) 938-4871
Paris,Maine,TRUE,"33 Market Square
Paris (South), ME 04281",(207) 743-2501
Parkman,Maine,TRUE,"771 State Hwy 150
Parkman, ME 04443",(207) 876-3730
Parsonsfield,Maine,TRUE,"634 North Rd
Parsonsfield, ME 04047",(207) 625-4558
Passadumkeag,Maine,TRUE,"PO Box 75
Passadumkeag, ME 04475",(207) 732-5111
Patten,Maine,TRUE,"PO Box 260
Patten, ME 04765",(207) 528-2215
Pembroke,Maine,TRUE,"48 Old County Rd.
PO Box 125
Pembroke, ME 04666",(207) 726-2036
Penobscot,Maine,TRUE,"PO Box 4
Penobscot, ME 04476",(207) 326-4364
Penobscot Nation Voting District,Maine,TRUE,"12 Wabanaki Way
Penobscot Nation, ME 04468",(207) 817-7351
Perham,Maine,TRUE,"206 High Meadow Rd
Perham, ME 04766",(207) 455-5887
Perry,Maine,TRUE,"71 Front St.
PO Box 125
Pembroke, ME 04666",(207) 726-2036
Peru,Maine,TRUE,"26 Main St
PO Box 429
Peru, ME 04290",(207) 562-4627
Phillips,Maine,TRUE,"15 Russell St
Phillips, ME 04966",(207) 639-3561
Phippsburg,Maine,TRUE,"1042 Main Road
Phippsburg, ME 04562",(207) 389-2653
Pittsfield,Maine,TRUE,"112 Somerset Avenue
Pittsfield, ME 04967",(207) 487-3136
Pittston,Maine,TRUE,"38 Whitefield
Pittston, ME 04345",(207) 582-4438
Pleasant Point Voting District,Maine,TRUE,"PO Box 343
Pleasant Point, ME 04667",(207) 853-5110
Pleasant Ridge Plantation,Maine,TRUE,"PO Box 151
Bingham, ME 04920",(207) 672-3784
Plymouth,Maine,TRUE,"1947 Moosehead Trail
PO Box 130
Plymouth, ME 04969",(207) 257-4646
Poland,Maine,TRUE,"1231 Maine Street
Poland, ME 04274",(207) 998-4601
Portage Lake,Maine,TRUE,"PO Box 255
Portage Lake, ME 04768",(207) 435-4361
Porter,Maine,TRUE,"71 Main Street
Porter, ME 04068",(207) 625-8344
Portland,Maine,TRUE,"389 Congress Street
Portland, ME 04101",(207) 874-8677
Pownal,Maine,TRUE,"429 Hallowell Rd
Pownal, ME 04069",(207) 688-4611
Prentiss Township T7 R3 Nbpp,Maine,TRUE,"778 Tucker Ridge Road
Webster Plantation, ME 04487",(207) 403-0551
Presque Isle,Maine,TRUE,"12 Second Street
Presque Isle, ME 04769",(207) 760-2720
Princeton,Maine,TRUE,"15 Depot Street
PO Box 408
Princeton, ME 04668",(207) 796-2744
Prospect,Maine,TRUE,"958 Bangor Rd
Prospect, ME 04981",(207) 567-3661
Randolph,Maine,TRUE,"121 Kinderhook Street
Randolph, ME 04346",(207) 582-5808
Rangeley,Maine,TRUE,"15 School Street
Rangeley, ME 04970",(207) 864-3326
Rangeley Plantation,Maine,TRUE,"PO Box 308
Rangeley Plantation, ME 04970",(207) 864-5155
Raymond,Maine,TRUE,"401 Webbs Mills Rd
Raymond, ME 04071",(207) 655-4742
Readfield,Maine,TRUE,"8 Old Kents Hill Rd
Readfield, ME 04355",(207) 685-4939
Reed Plantation,Maine,TRUE,"774 Main St
PO Box 114
Wytopitlock, ME 04497",(207) 456-7546
Richmond,Maine,TRUE,"26 Gardiner Street
Richmond, ME 04357",(207) 737-4305
Ripley,Maine,TRUE,"47 West Ripley Road
Ripley, ME 04930",(207) 277-4871
Robbinston,Maine,TRUE,"435 Sherman Road
Robbinston, ME 04671",(207) 454-3220
Rockland,Maine,TRUE,"270 Pleasant
Rockland, ME 04841",(207) 594-0304
Rockport,Maine,TRUE,"101 Main Street
Rockport, ME 04856",(207) 236-9648
Rockwood Strip Township,Maine,TRUE,"31 Spruce St
PO Box 37
Rockwood, ME 04478",(207) 534-7464
Rome,Maine,TRUE,"8 Mercer Road
Rome, ME 04963",(207) 397-4011
Roque Bluffs,Maine,TRUE,"3 Roque Bluffs Rd
Roque Bluffs, ME 04654",(207) 255-3330
Roxbury,Maine,TRUE,"PO Box 24
Roxbury, ME 04275",(207) 364-3982
Rumford,Maine,TRUE,"145 Congress St
Rumford, ME 04276",(207) 364-3001
Sabattus,Maine,TRUE,"190 Middle Rd
Sabattus, ME 04280",(207) 375-4331
Saco,Maine,TRUE,"300 Main Street
Saco, ME 04072",(207) 284-4831
Saint Agatha,Maine,TRUE,"PO Box 110
St. Agatha, ME 04772",(207) 543-7305
Saint Albans,Maine,TRUE,"7 Water Street
St. Albans, ME 04971",(207) 938-4568
Saint Francis,Maine,TRUE,"857 Main St
St. Francis, ME 04774",(207) 398-3175
Saint George,Maine,TRUE,"PO Box 131
Tenants Harbor, ME 04860",(207) 372-6363
Saint John Plantation,Maine,TRUE,"1774 St. John Rd.
St. John Plantation., ME 04743",(207) 834-6444
Sandy River Plantation,Maine,TRUE,"33 Townhall Road
Sandy River Plantation, ME 04970",(207) 864-2234
Sanford,Maine,TRUE,"919 Main Street
Sanford, ME 04073",(207) 324-9125
Sangerville,Maine,TRUE,"PO Box 188
Sangerville, ME 04479",(207) 876-2814
Scarborough,Maine,TRUE,"PO Box 360
Scarborough, ME 04070",(207) 730-4020
Searsmont,Maine,TRUE,"PO Box 56
Searsmont, ME 04973",(207) 342-5411
Searsport,Maine,TRUE,"1 Union Street
PO Box 499
Searsport, ME 04974",(207) 548-6372
Sebago,Maine,TRUE,"406 Bridgton Rd
Sebago, ME 04029",(207) 787-2457
Sebec,Maine,TRUE,"29 North Rd
Sebec, ME 04481",(207) 564-8367
Seboeis Plantation,Maine,TRUE,"1228 Seboeis Rd.
Seboeis Plantation., ME 04448",(207) 732-6175
Sedgwick,Maine,TRUE,"719 N Sedgwick Road
PO Box 40
Sedgwick, ME 04676",(207) 359-2275
Shapleigh,Maine,TRUE,"22 Back Rd
PO Box 26
Shapleigh, ME 04076",(207) 636-2843
Sherman,Maine,TRUE,"36 School St Suite 1
Sherman, ME 04776",(207) 365-4260
Shirley,Maine,TRUE,"89 West Road
PO Box 147
Shirley, ME 04485",(207) 695-3257
Sidney,Maine,TRUE,"2986 Middle Rd
Sidney, ME 04330",(207) 547-3340
Silver Ridge Township,Maine,TRUE,"36 School St Suite 1
Sherman, ME 04776",(207) 365-4260
Sinclair,Maine,TRUE,"PO Box 110
St Agatha, ME 04772",(207) 543-7305
Skowhegan,Maine,TRUE,"225 Water St
Skowhegan, ME 04976",(207) 474-6902
Smithfield,Maine,TRUE,"926 Village Rd
Smithfield, ME 04978",(207) 362-4772
Smyrna,Maine,TRUE,"3391 Route 2
PO Box 239
Smyrna, ME 04780",(207) 757-8286
Solon,Maine,TRUE,"121 South Main St
PO Box 214
Solon, ME 04979",(207) 643-2812
Somerville,Maine,TRUE,"72 Sand Hill Rd
Somerville, ME 04348",(207) 549-3828
Sorrento,Maine,TRUE,"79 Pomola Ave
Sorrento, ME 04677",(207) 422-6889
South Berwick,Maine,TRUE,"180 Main Street
South Berwick, ME 03908",(207) 384-3001
South Bristol,Maine,TRUE,"470 Clarks Cove Rd - Walpole
South Bristol, ME 04573",(207) 563-3977
South Portland,Maine,TRUE,"25 Cottage Road
South Portland, ME 04106",(207) 767-7601
South Thomaston,Maine,TRUE,"PO Box 147
South Thomaston, ME 04858",(207) 596-6584
Southport,Maine,TRUE,"PO Box 149
Southport, ME 04576",(207) 633-6311
Southwest Harbor,Maine,TRUE,"PO Box 745
Southwest Harbor, ME 04679",(207) 244-5404
Springfield,Maine,TRUE,"13 Park Street
Springfield, ME 04487",(207) 738-2176
Stacyville,Maine,TRUE,"414 Station Rd
PO Box 116
Stacyville, ME 04777",(207) 365-4195
Standish,Maine,TRUE,"175 Northeast Road
Standish, ME 04084",(207) 642-4678
Starks,Maine,TRUE,"57 Anson Road
Starks, ME 04911",(207) 696-8069
Stetson,Maine,TRUE,"PO Box 85
Stetson, ME 04488",(207) 296-3232
Steuben,Maine,TRUE,"294 US Route 1
Steuben, ME 04680",(207) 546-7209
Stockholm,Maine,TRUE,"PO Box 10
Stockholm, ME 04783",(207) 896-5659
Stockton Springs,Maine,TRUE,"PO Box 339
Stockton Springs, ME 04981",(207) 567-3404
Stoneham,Maine,TRUE,"PO Box 91
Stoneham, ME 04231",(207) 928-2155
Stonington,Maine,TRUE,"32 Main St
PO Box 9
Stonington, ME 04681",(207) 367-2351
Stow,Maine,TRUE,"710 Stow Rd.
Stow, ME 04037",(207) 697-2007
Strong,Maine,TRUE,"PO Box 263
Strong, ME 04983",(207) 684-4002
Sullivan,Maine,TRUE,"1888 U S Hwy 1
Sullivan, ME 04664",(207) 422-6282
Sumner,Maine,TRUE,"633 Main Street
Sumner, ME 04292",(207) 388-2866
Surry,Maine,TRUE,"741 North Bend Rd
PO Box 147
Surry, ME 04684",(207) 667-5912
Swans Island,Maine,TRUE,"PO Box 11
Swan'S Island, ME 04685",(207) 526-4279
Swanville,Maine,TRUE,"6 Town House Road
Swanville, ME 04915",(207) 338-5834
Sweden,Maine,TRUE,"147 Bridgton Rd
Sweden, ME 04040",(207) 647-3944
Talmadge,Maine,TRUE,"455 Houlton Rd #13
Waite, ME 04492",(207) 619-3829
Temple,Maine,TRUE,"258 Temple Road
PO Box 549
Temple, ME 04984",(207) 778-6680
The Forks Plantation,Maine,TRUE,"PO Box 25
PO Box 25
Caratunk, ME 04925",(207) 615-3376
Thomaston,Maine,TRUE,"170 Main Street
Thomaston, ME 04861",(207) 354-6107
Thorndike,Maine,TRUE,"PO Box 10
Thorndike, ME 04986",(207) 568-3655
Topsfield,Maine,TRUE,"48 North Road
PO Box 59
Topsfield, ME 04490",(207) 796-5157
Topsham,Maine,TRUE,"100 Main Street
Topsham, ME 04086",(207) 725-5821
Tremont,Maine,TRUE,"PO Box 159
Bernard, ME 04612",(207) 244-7204
Trenton,Maine,TRUE,"59 Oak Point Road
Trenton, ME 04605",(207) 667-7207
Troy,Maine,TRUE,"129 Rogers Rd
Troy, ME 04987",(207) 948-2283
Turner,Maine,TRUE,"11 Turner Center Rd
Turner, ME 04282",(207) 225-3414
Union,Maine,TRUE,"PO Box 186
Union, ME 04862",(207) 785-3658
Unity,Maine,TRUE,"PO Box 416
Unity, ME 04988",(207) 948-3763
Upton,Maine,TRUE,"270 Thistle St
Upton, ME 04261",(207) 533-2131
Van Buren,Maine,TRUE,"51 Main Street Suite 101
Van Buren, ME 04785",(207) 868-2886
Vanceboro,Maine,TRUE,"9 Winchester Way
PO Box 33
Vanceboro, ME 04491",(207) 788-3854
Vassalboro,Maine,TRUE,"PO Box 129
No Vassalboro, ME 04962",(207) 872-2826
Veazie,Maine,TRUE,"1084 Main Street
Veazie, ME 04401",(207) 947-2781
Verona Island,Maine,TRUE,"PO Box 1940
Bucksport, ME 04416",(207) 469-7965
Vienna,Maine,TRUE,"346 Town House Rd.
Vienna, ME 04360",(207) 293-2915
Vinalhaven,Maine,TRUE,"19 Washington School Road
PO Box 815
Vinalhaven, ME 04863",(207) 863-4343
Wade,Maine,TRUE,"1287 Main Street
Washburn, ME 04786",(207) 455-8485
Waite,Maine,TRUE,"PO Box 34
Princeton, ME 04668",(207) 214-7525
Waldo,Maine,TRUE,"54 Gurney Hill Road
Waldo, ME 04915",(207) 342-5400
Waldoboro,Maine,TRUE,"PO Box J
Waldoboro, ME 04572",(207) 832-5369
Wales,Maine,TRUE,"175 Centre Rd
Wales, ME 04280",(207) 375-8881
Wallagrass,Maine,TRUE,"PO Box 165
Wallagrass, ME 04781",(207) 834-2263
Waltham,Maine,TRUE,"1525 Waltham Road
Waltham, ME 04605",(207) 584-3304
Warren,Maine,TRUE,"167 Western Road
Warren, ME 04864",(207) 273-2421
Washburn,Maine,TRUE,"1287 Main Street
Washburn, ME 04786",(207) 455-8485
Washington,Maine,TRUE,"PO Box 408
Washington, ME 04574",(207) 845-2897
Waterboro,Maine,TRUE,"24 Townhouse Road
E Waterboro, ME 04030",(207) 247-6166
Waterford,Maine,TRUE,"366 Valley Road
Waterford, ME 04088",(207) 583-4403
Waterville,Maine,TRUE,"1 Common St
Waterville, ME 04901",(207) 680-4210
Wayne,Maine,TRUE,"PO Box 400
Wayne, ME 04284",(207) 685-4983
Webster Plantation,Maine,TRUE,"778 Tucker Ridge Rd
Webster, ME 04487",(207) 765-2107
Weld,Maine,TRUE,"23 Mill St
PO Box 87
Weld, ME 04285",(207) 585-2348
Wellington,Maine,TRUE,"3 Water
PO Box 40
Harmony, ME 04942",(207) 683-2030
Wells,Maine,TRUE,"208 Sanford Rd
Wells, ME 04090",(207) 646-2882
Wesley,Maine,TRUE,"492 Cooper Rd.
Alexander, ME 04694",(207) 255-0941
West Bath,Maine,TRUE,"219 Fosters Point Road
West Bath, ME 04530",(207) 443-4342
West Forks Plantation,Maine,TRUE,"PO Box 15
West Forks, ME 04985",(207) 399-3975
West Gardiner,Maine,TRUE,"318 Spears Corner Road
West Gardiner, ME 04345",(207) 724-3945
West Paris,Maine,TRUE,"25 Kingsbury
PO Box 247
West Paris, ME 04289",(207) 674-2701
Westbrook,Maine,TRUE,"2 York St.
Westbrook, ME 04092",(207) 591-8115
Westfield,Maine,TRUE,"6 Main Street
PO Box 146
Westfield, ME 04787",(207) 425-5951
Westmanland,Maine,TRUE,"1157 Westmanland
Westmanland, ME 04783",(207) 896-3019
Weston,Maine,TRUE,"5 Church Lane
Weston, ME 04424",(207) 448-2316
Westport Island,Maine,TRUE,"6 Fowles Point Road
Westport Island, ME 04578",(207) 882-8477
Whitefield,Maine,TRUE,"36 Townhouse Rd
Whitefield, ME 04353",(207) 549-5175
Whiting,Maine,TRUE,"169 US Rte1
PO Box 101
Whiting, ME 04691",(207) 733-2027
Whitneyville,Maine,TRUE,"181 South Main Street
Whitneyville, ME 04654",(207) 255-4662
Willimantic,Maine,TRUE,"175 Herring Tract Rd
Willimantic, ME 04443",(207) 717-9638
Wilton,Maine,TRUE,"158 Weld Road
Wilton, ME 04294",(207) 645-4961
Windham,Maine,TRUE,"8 School Rd
Windham, ME 04062",(207) 892-1900
Windsor,Maine,TRUE,"PO Box 179
Windsor, ME 04363",(207) 445-2998
Winn,Maine,TRUE,"P O Box 98
Winn, ME 04495",(207) 736-7111
Winslow,Maine,TRUE,"114 Benton Avenue
Winslow, ME 04901",(207) 872-2776
Winter Harbor,Maine,TRUE,"PO Box 98
Winter Harbor, ME 04693",(207) 963-2235
Winterport,Maine,TRUE,"PO Box 559
Winterport, ME 04496",(207) 223-5055
Winterville Plantation,Maine,TRUE,"391 Quimby Rd
Winterville Plantation, ME 04739",(207) 444-6460
Winthrop,Maine,TRUE,"17 Highland Ave
Winthrop, ME 04364",(207) 377-7200
Wiscasset,Maine,TRUE,"51 Bath Road
Wiscasset, ME 04578",(207) 882-8200
Woodland,Maine,TRUE,"843 Woodland Center Rd Suite 1
Woodland, ME 04736",(207) 498-6133
Woodstock,Maine,TRUE,"26 Monk Ave
PO Box 317
Woodstock, ME 04219",(207) 665-2668
Woodville,Maine,TRUE,"624 Woodville Rd
Woodville, ME 04457",(207) 746-9355
Woolwich,Maine,TRUE,"13 Nequasset Road
Woolwich, ME 04579",(207) 442-8723
Yarmouth,Maine,TRUE,"200 Main Street
Yarmouth, ME 04096",(207) 846-9036
York,Maine,TRUE,"186 York Street
York, ME 03909",(207) 363-1003