name,state,city,office_address,telephone,email
Abington,Massachusetts,TRUE,"500 GLINIEWICZ WAY
ABINGTON MA 02351",781-982-2112,lmadams@abingtonma.gov
Acton,Massachusetts,TRUE,472 MAIN STREET 01720,978-929-6620,clerk@acton-ma.gov
Acushnet,Massachusetts,TRUE,130 MAIN STREET 02743,508-998-0215,plabonte@acushnet.ma.us
Adams,Massachusetts,TRUE,8 PARK ST 01220,413-743-8300,hmeczywor@town.adams.ma.us
Agawam,Massachusetts,TRUE,36 MAIN STREET 01001,413-786-0400,clerk@agawam.ma.us
Alford,Massachusetts,TRUE,5 ALFORD CENTER RD 01230,413-528-4536,clerk@townofalford.org
Amesbury,Massachusetts,TRUE,"62 FRIEND ST.
CITY HALL 01913",978-388-8100,dixonc@amesburyma.gov
Amherst,Massachusetts,TRUE,"TOWN HALL
4 BOLTWOOD AVE 01002",413-259-3109,martins@amherstma.gov
Andover,Massachusetts,TRUE,"TOWN OFFICES
36 BARTLET STREET 01810",978-623-8230,townclerk@andoverma.us
Aquinnah,Massachusetts,TRUE,"955 STATE RD
AQUINNAH MA 02535",508-645-2304,townclerk@aquinnah-ma.gov
Arlington,Massachusetts,TRUE,"730 MASS. AVE.
ARLINGTON 02476",781-316-3070,slucarelli@town.arlington.ma.us
Ashburnham,Massachusetts,TRUE,"32 MAIN ST
ASHBURNHAM, MA 01430",978-827-4102,townclerk@ashburnham-ma.gov
Ashby,Massachusetts,TRUE,895 MAIN ST 01431,978-386-2424,tclerk@ashbyma.gov
Ashfield,Massachusetts,TRUE,"412 MAIN STREET
PO BOX 560 01330",413-628-4441,townclerk@ashfield.org
Ashland,Massachusetts,TRUE,"101 MAIN ST
TOWN HALL 01721",508-881-0100,tward@ashlandmass.com
Athol,Massachusetts,TRUE,"584 MAIN STREET
ATHOL MA 01331",978-249-4551,townclerk@townofathol.org
Attleboro,Massachusetts,TRUE,"77 PARK ST
ATTLEBORO, MA 02703",508-223-2222,elections@cityofattleboro.us
Auburn,Massachusetts,TRUE,104 CENTRAL ST 01501,508-832-7701,dgremo@town.auburn.ma.us
Avon,Massachusetts,TRUE,"65 EAST MAIN ST
BUCKLEY CENTER 02322",508-588-0414,pbessette@avon-ma.gov
Ayer,Massachusetts,TRUE,1 MAIN ST 01432,978-772-8215,scopeland@ayer.ma.us
Barnstable,Massachusetts,TRUE,"367 MAIN ST
HYANNIS, MA 02601",508-862-4044,ann.quirk@town.barnstable.ma.us
Barre,Massachusetts,TRUE,"40 WEST ST
PO BOX 418 01005",978-355-5003,clerk@townofbarre.com
Becket,Massachusetts,TRUE,"557 MAIN ST
BECKET 01223",413-623-8934,townclerk@townofbecket.org
Bedford,Massachusetts,TRUE,"10 MUDGE WAY
BEDFORD, MA 01730",781-275-0083,clerk@bedfordma.gov
Belchertown,Massachusetts,TRUE,"2 JABISH ST, RM 201
P.O. BOX 629 01007",413-323-0281,clerk@belchertown.org
Bellingham,Massachusetts,TRUE,"10 MECHANIC ST
BELLINGHAM, MA 02019",508-657-2830,lsposato@bellinghamma.org
Belmont,Massachusetts,TRUE,455 CONCORD AVE 02478,617-993-2600,ecushman@belmont-ma.gov
Berkley,Massachusetts,TRUE,1 NORTH MAIN ST 02779,508-822-3348,townclerk@berkleyma.us
Berlin,Massachusetts,TRUE,23 LINDEN ST. #8 01503,978-838-2931,townclerk@townofberlin.com
Bernardston,Massachusetts,TRUE,"P.O.BOX 504
BERNARDSTON 01337",413-648-5408,townclerk@townofbernardston.org
Beverly,Massachusetts,TRUE,191 CABOT ST 01915-5849,978-605-2326,wslate@beverlyma.gov
Billerica,Massachusetts,TRUE,365 BOSTON RD 01821,978-671-0926,sschult@town.billerica.ma.us
Blackstone,Massachusetts,TRUE,"15 ST. PAUL ST.
BLACKSTONE, MA 01504",508-883-1500,tsullivan@townofblackstone.org
Blandford,Massachusetts,TRUE,P O BOX 33 01008,413-848-4279,townclerk@townofblandford.com
Bolton,Massachusetts,TRUE,"P.O.BOX 278
663 MAIN ST. 01740",978-779-2771,townclerk@townofbolton.com
Boston,Massachusetts,TRUE,"ONE CITY HALL SQUARE
ROOM 241 02201",617-635-3767,election@boston.gov
Bourne,Massachusetts,TRUE,"24 PERRY AVENUE
BUZZARDS BAY MA 02532",508-759-0600,wchapman@townofbourne.com
Boxborough,Massachusetts,TRUE,29 MIDDLE RD 01719,978-264-1727,emarkiewicz@boxborough-ma.gov
Boxford,Massachusetts,TRUE,7A SPOFFORD RD 01921,978-887-6000,rphelan@town.boxford.ma.us
Boylston,Massachusetts,TRUE,"221 MAIN ST
BOYLSTON TOWN HALL 01505",508-869-2234,ljohnson@BOYLSTON-MA.GOV
Braintree,Massachusetts,TRUE,1 J.F.K. MEMORIAL DR 02184,781-794-8240,jmcasey@braintreema.gov
Brewster,Massachusetts,TRUE,"2198 MAIN ST
BREWSTER, MA 02631",508-896-4506,cwilliams@brewster-ma.gov
Bridgewater,Massachusetts,TRUE,"66 CENTRAL SQUARE
BRIDGEWATER 02324",508-697-0921,townclerk@bridgewaterma.org
Brimfield,Massachusetts,TRUE,"PO BOX 508 BRIMFIELD
TOWN HALL 01010",413-245-4100,TownClerk@BrimfieldMA.org
Brockton,Massachusetts,TRUE,45 SCHOOL ST 02301,508-580-7117,elections@cobma.us
Brookfield,Massachusetts,TRUE,6 CENTRAL STREET 01506,508-867-2930,mseery@brookfieldma.us
Brookline,Massachusetts,TRUE,333 WASHINGTON ST 02445,617-730-2010,pward@brooklinema.gov
Buckland,Massachusetts,TRUE,"PO BOX 159
BUCKLAND MA 01338",413-625-6330,twnclerk@town.buckland.ma.us
Burlington,Massachusetts,TRUE,29 CENTER STREET 01803,781-270-1660,clerk@burlington.org
Cambridge,Massachusetts,TRUE,"51 INMAN ST
FIRST FLOOR 02139",617-349-4361,elections2@cambridgema.gov
Canton,Massachusetts,TRUE,801 WASHINGTON ST 02021,781-821-5013,tkenney@town.canton.ma.us
Carlisle,Massachusetts,TRUE,66 WESTFORD STREET 01741,978-369-6155,townclerk@carlislema.gov
Carver,Massachusetts,TRUE,108 MAIN ST 02330,508-866-3403,cara.dahill@carverma.org
Charlemont,Massachusetts,TRUE,"157 MAIN ST, BOX 605
CHARLEMONT 01339",413-339-4335,KATHY.REYNOLDS@TOWNOFCHARLEMONT.ORG
Charlton,Massachusetts,TRUE,"37 MAIN ST
CHARLTON 01507",508-248-2249,karen.lacroix@townofcharlton.net
Chatham,Massachusetts,TRUE,"549 MAIN STREET
CHATHAM MA 02633",508-945-5101,jsmith@chatham-ma.gov
Chelmsford,Massachusetts,TRUE,50 BILLERICA RD 01824,978-250-5205,townclerk@townofchelmsford.us
Chelsea,Massachusetts,TRUE,"500 BROADWAY
CHELSEA, MA 02150",617-466-4050,jcwhite@chelseama.gov
Cheshire,Massachusetts,TRUE,"80 CHURCH ST BOX S
CHESHIRE 01225",413-743-1690,townclerk@cheshire-ma.gov
Chester,Massachusetts,TRUE,15 MIDDLEFIELD RD 01011,413-354-6603,chestertownclerk@comcast.net
Chesterfield,Massachusetts,TRUE,"PO BOX 13
CHESTERFIELD MA 01012",413-296-4741,townclerk@townofchesterfieldma.com
Chicopee,Massachusetts,TRUE,"274 FRONT ST
CITY HALL 01013",413-594-1550,jsurdyka@chicopeema.gov
Chilmark,Massachusetts,TRUE,"P.O. BOX 119
CHILMARK, MA 02535",508-645-2107,townclerk@chilmarkma.gov
Clarksburg,Massachusetts,TRUE,111 RIVER RD 01247,413-663-8255,ClarksburgTClerk@gmail.com
Clinton,Massachusetts,TRUE,"242 CHURCH ST
CLINTON 01510",978-365-4119,hsargent@clintonma.gov
Cohasset,Massachusetts,TRUE,41 HIGHLAND AVE 02025,781-383-4100,cstpierre@cohassetma.org
Colrain,Massachusetts,TRUE,55 MAIN RD 01340,413-624-3454,townclerk@colrain-ma.gov
Concord,Massachusetts,TRUE,"22 MONUMENT SQUARE
P.O. BOX 535 01742",978-318-3080,townclerk@concordma.gov
Conway,Massachusetts,TRUE,"32 MAIN ST
P.O. BOX 240 01341",413-369-4235,clerk@townofconway.com
Cummington,Massachusetts,TRUE,PO BOX 128 01026,413-200-5011,clerk@cummington-ma.gov
Dalton,Massachusetts,TRUE,"462 MAIN STREET
DALTON 01226-1677",413-684-6111,DMerry@dalton-ma.gov
Danvers,Massachusetts,TRUE,"1 SYLVAN ST
DANVERS TOWN HALL 01923",978-777-0001,cellsworth@danversma.gov
Dartmouth,Massachusetts,TRUE,400 SLOCUM RD 02747,508-910-1800,lmedeiros@town.dartmouth.ma.us
Dedham,Massachusetts,TRUE,26 BRYANT ST 02026,781-751-9200,pmunchbach@dedham-ma.gov
Deerfield,Massachusetts,TRUE,"8 CONWAY ST
SO DEERFIELD 01373",413-665-1400,townclerk@town.deerfield.ma.us
Dennis,Massachusetts,TRUE,685 ROUTE 134 02660,508-760-6112,tbunce@town.dennis.ma.us
Dighton,Massachusetts,TRUE,"979 SOMERSET AVE
DIGHTON 02715",508-669-5411,smedeiros@townofdighton.com
Douglas,Massachusetts,TRUE,"29 DEPOT ST
DOUGLAS, MA 01516",508-476-4000,CFURNO@DOUGLASMA.ORG
Dover,Massachusetts,TRUE,"5 SPRINGDALE AVE
POST OFFICE BOX 250 02030",508-785-0032,fhoffman@doverma.org
Dracut,Massachusetts,TRUE,62 ARLINGTON ST. 01826,978-453-0951,kgraham@dracutma.gov
Dudley,Massachusetts,TRUE,"71 WEST MAIN STREET
DUDLEY 01571",508-949-8004,townclerk@dudleyma.gov
Dunstable,Massachusetts,TRUE,"511 MAIN ST
DUNSTABLE MA 01827",978-649-4514,CSkerrett@dunstable-ma.gov
Duxbury,Massachusetts,TRUE,"878 TREMONT ST
DUXBURY 02332",781-934-1100,kelley@town.duxbury.ma.us
East Bridgewater,Massachusetts,TRUE,"175 CENTRAL ST.
BOX 387 02333",508-378-1606,sgillpatrick@ebmass.com
East Brookfield,Massachusetts,TRUE,"POB 568
EAST BROOKFIELD, MA 01515-0568",508-867-6769,townclerk@eastbrookfieldma.us
East Longmeadow,Massachusetts,TRUE,60 CENTER SQUARE 01028,413-525-5400,jeanne.quaglietti@eastlongmeadowma.gov
Eastham,Massachusetts,TRUE,"2500 STATE HWY
EASTHAM, MA 02642",774-801-3223,townclerk@eastham-ma.gov
Easthampton,Massachusetts,TRUE,"50 PAYSON AVE
STE 100 01027-2260",413-529-1400,blabombard@easthamptonma.gov
Easton,Massachusetts,TRUE,136 ELM ST 02356,508-230-0530,townclerksoffice@easton.ma.us
Edgartown,Massachusetts,TRUE,"70 MAIN ST
P O BOX 35 02539",508-627-6110,kmedeiros@edgartown-ma.us
Egremont,Massachusetts,TRUE,"PO BOX 368
S EGREMONT MA 01258",413-528-0182,townclerk@egremont-ma.gov
Erving,Massachusetts,TRUE,"12 EAST MAIN STREET
ERVING 01344",413-422-2800,richard.newton@erving-ma.gov
Essex,Massachusetts,TRUE,"30 MARTIN STREET
ESSEX 01929",978-768-7111,pthorne@ESSEXMA.ORG
Everett,Massachusetts,TRUE,"484 BROADWAY,ROOM
EVERETT, MA 02149",617-394-2297,l.angiolillo@ci.everett.ma.us
Fairhaven,Massachusetts,TRUE,"40 CENTER ST
FAIRHAVEN, MA 02719",508-979-4023,churley@fairhaven-ma.gov
Fall River,Massachusetts,TRUE,"1 GOVERNMENT CENTER
RM 636 02722",508-324-2630,ksouza-young@fallriverma.org
Falmouth,Massachusetts,TRUE,59 TOWN HALL SQ 02540,508-495-7353,michael.palmer@falmouthma.gov
Fitchburg,Massachusetts,TRUE,166 BOULDER DRIVE 01420,978-829-1820,mdealderete@fitchburgma.gov
Florida,Massachusetts,TRUE,"379 MOHAWK TRL
DRURY, MA 01343",413-662-2448,floridaclerk.floridamass@gmail.com
Foxborough,Massachusetts,TRUE,"40 SOUTH STREET
FOXBOROUGH, MA 02035",508-543-1208,bcutler@foxboroughma.gov
Framingham,Massachusetts,TRUE,"150 CONCORD STREET
ROOM 105 01702",508-532-5521,LAF@framinghamma.gov
Franklin,Massachusetts,TRUE,"355 EAST CENTRAL ST.
MUNICIPAL BUILDING 02038",508-520-4900,TBURR@FRANKLINMA.GOV
Freetown,Massachusetts,TRUE,"3 NORTH MAIN ST
ASSONET MA 02702",508-644-2201,townclerk@freetownma.gov
Gardner,Massachusetts,TRUE,"CITY HALL, ROOM 121
95 PLEASANT STREET 01440",978-630-4058,aagnelli@gardner-ma.gov
Georgetown,Massachusetts,TRUE,"1 LIBRARY ST
GEORGETOWN 01833",978-352-5711,kmcmanus@georgetownma.gov
Gill,Massachusetts,TRUE,"325 MAIN RD
GILL, MA 01354",413-863-8103,townclerk@gillmass.org
Gloucester,Massachusetts,TRUE,9 DALE AVE 01930,978-281-9720,jsenos@gloucester-ma.gov
Goshen,Massachusetts,TRUE,40 MAIN STREET 01032,413-268-8236,clerk@goshen-ma.us
Gosnold,Massachusetts,TRUE,"PO BOX 28
CUTTYHUNK 02713",508-990-7408,gosnoldtownclerk@yahoo.com
Grafton,Massachusetts,TRUE,30 PROVIDENCE RD 01519,508-839-5335,clerks@grafton-ma.gov
Granby,Massachusetts,TRUE,"215 B WEST STATE ST
TOWN OFFICES 01033",413-467-7178,kkellyregan@granby-ma.gov
Granville,Massachusetts,TRUE,"PO BOX 247
GRANVILLE MA 01034-0247",413-357-8585,townclear@townofgranville.org
Great Barrington,Massachusetts,TRUE,"334 MAIN ST
GREAT BARRINGTON 01230",413-528-1619,jmessina@townofgb.org
Greenfield,Massachusetts,TRUE,14 COURT SQUARE 01301,413-772-1555,townclerk@greenfield-ma.gov
Groton,Massachusetts,TRUE,173 MAIN STREET 01450,978-448-1100,townclerk@townofgroton.org
Groveland,Massachusetts,TRUE,"183 MAIN STREET
GROVELAND, MA 01834",978-469-5005,ecunniff@grovelandma.com
Hadley,Massachusetts,TRUE,"100 MIDDLE STREET
HADLEY, MA 01035",413-584-1590,clerk@hadleyma.org
Halifax,Massachusetts,TRUE,"499 PLYMOUTH ST
HALIFAX, MA 02338",781-293-7970,bgaynor@town.halifax.ma.us
Hamilton,Massachusetts,TRUE,577 BAY ROAD 01936,978-468-5570,sgeorge@hamiltonma.gov
Hampden,Massachusetts,TRUE,625 MAIN STREET 01036,413-566-2151,townclerk@hampdenma.gov
Hancock,Massachusetts,TRUE,3650 HANCOCK RD 01237,413-738-5225,HANTCLB1@aol.com
Hanover,Massachusetts,TRUE,550 HANOVER STREET 02339,781-826-5000,catherine.harderbernier@hanover-ma.gov
Hanson,Massachusetts,TRUE,542 LIBERTY STREET 02341,781-293-2772,townclerk@hanson-ma.gov
Hardwick,Massachusetts,TRUE,"307 MAIN ST
BOX 575 01031",413-477-6700,clerk@townofhardwick.com
Harvard,Massachusetts,TRUE,13 AYER ROAD 01451-1458,978-456-4100,mkenney@harvard.ma.us
Harwich,Massachusetts,TRUE,732 MAIN ST 02645,508-430-7516,adoucette@town.harwich.ma.us
Hatfield,Massachusetts,TRUE,"59 MAIN ST
HATFIELD 01038",413-247-0492,TOWNCLERK@TOWNOFHATFIELD.ORG
Haverhill,Massachusetts,TRUE,4 SUMMER ST ROOM 118 01830,978-420-3622,cityclerk@cityofhaverhill.com
Hawley,Massachusetts,TRUE,8 PUDDING HOLLOW RD 01339,413-339-5518,TOWNCLERK@TOWNOFHAWLEY.COM
Heath,Massachusetts,TRUE,"1 EAST MAIN STREET
HEATH 01346",413-337-4934,townclerk@townofheath.org
Hingham,Massachusetts,TRUE,210 CENTRAL STREET 02043,781-741-1410,townclerk@hingham-ma.gov
Hinsdale,Massachusetts,TRUE,PO BOX 803 01235,413-655-2301,clerk@hinsdalema.gov
Holbrook,Massachusetts,TRUE,50 N FRANKLIN STREET 02343,781-767-4314,town_clerk@holbrookmassachusetts.us
Holden,Massachusetts,TRUE,"1196 MAIN STREET
HOLDEN, MA 01520",508-210-5532,jsurvell@holdenma.gov
Holland,Massachusetts,TRUE,27 STURBRIDGE RD 01521,413-245-7108,townclerk@townofholland.necoxmail.com
Holliston,Massachusetts,TRUE,703 WASHINGTON ST. 01746,508-429-0601,greendalee@holliston.k12.ma.us
Holyoke,Massachusetts,TRUE,"536 DWIGHT ST
SUITE #2 01040",413-322-5540,mcgeeb@holyoke.org
Hopedale,Massachusetts,TRUE,"P.O. BOX 7
78 HOPEDALE STREET 01747-0007",508-634-2203,lpedroli@hopedale-ma.gov
Hopkinton,Massachusetts,TRUE,18 MAIN STREET 01748,508-497-9710,townclerk@hopkintonma.gov
Hubbardston,Massachusetts,TRUE,"7 MAIN ST, UNIT 12 01452",978-928-1400,tclerk@hubbardstonma.us
Hudson,Massachusetts,TRUE,"78 MAIN ST
HUDSON MA 01749",978-568-9615,jwordell@townofhudson.org
Hull,Massachusetts,TRUE,"253 ATLANTIC AVE
HULL 02045",781-925-2262,lwest@town.hull.ma.us
Huntington,Massachusetts,TRUE,PO BOX 453 01050,413-512-5209,huntingtonclerk@comcast.net
Ipswich,Massachusetts,TRUE,25 GREEN STREET 01938,978-356-6677,amya@ipswichma.gov
Kingston,Massachusetts,TRUE,26 EVERGREEN STREET 02364,781-585-0502,Pgallagher@kingstonmass.org
Lakeville,Massachusetts,TRUE,"346 BEDFORD ST
LAKEVILLE 02347",508-946-8814,ldrane@lakevillema.org
Lancaster,Massachusetts,TRUE,"701 MAIN ST, SUITE 2 01523",978-365-3326,dreardon@lancasterma.net
Lanesborough,Massachusetts,TRUE,PO BOX 1492 01237,413-442-1351,town.clerk@lanesborough-ma.gov
Lawrence,Massachusetts,TRUE,"200 COMMON ST RM 4
LAWRENCE MA 01840",978-620-3290,wmaloney@cityoflawrence.com
Lee,Massachusetts,TRUE,32 MAIN ST 01238,413-243-5505,cbrittain@town.lee.ma.us
Leicester,Massachusetts,TRUE,"3 WASHBURN SQUARE
LEICESTER, MA 01524",508-892-7011,davisd@leicesterma.org
Lenox,Massachusetts,TRUE,6 WALKER ST 01240,413-637-5500,ksullivan@townoflenox.com
Leominster,Massachusetts,TRUE,"25 WEST ST
ROOM 5 01453",978-534-7500,khuffman@leominster-ma.gov
Leverett,Massachusetts,TRUE,"9 MONTAGUE RD
PO BOX 300 01054",413-548-9150,townclerk@leverett.ma.us
Lexington,Massachusetts,TRUE,1625 MASS. AVE 02420,781-698-4558,townclerk@lexingtonma.gov
Leyden,Massachusetts,TRUE,"16 WEST LEYDEN RD
LEYDEN, MA 01337",413-774-4111,townclerk@townofleyden.com
Lincoln,Massachusetts,TRUE,16 LINCOLN ROAD 01773,781-259-2607,foxv@lincolntown.org
Littleton,Massachusetts,TRUE,"37 SHATTUCK STREET
LITTLETON, MA 01460",978-540-2401,dcrory@littletonma.org
Longmeadow,Massachusetts,TRUE,20 WILLIAMS STREET 01106,413-565-4103,kingram@longmeadow.org
Lowell,Massachusetts,TRUE,"375 MERRIMACK ST
RM 5 BASEMENT 01852",978-674-4046,ematchak@lowellma.gov
Ludlow,Massachusetts,TRUE,"488 CHAPIN ST.
LUDLOW, MA 01056",413-583-5600,clerk@ludlow.ma.us
Lunenburg,Massachusetts,TRUE,"17 MAIN ST
PO BOX 135 01462",978-582-4130,kherrick@lunenburgonline.com
Lynn,Massachusetts,TRUE,"3 CITY HALL SQ
ROOM 203 01901",781-586-6805,jrowe@lynnma.gov
Lynnfield,Massachusetts,TRUE,55 SUMMER ST 01940,781-334-9401,lemerson@town.lynnfield.ma.us
Malden,Massachusetts,TRUE,"110 PLEASANT ST
FIRST FLOOR 02148",781-397-7116,glucey@cityofmalden.org
Manchester-By-The-Sea,Massachusetts,TRUE,10 CENTRAL ST 01944,978-526-2040,stpierrec@manchester.ma.us
Mansfield,Massachusetts,TRUE,"6 PARK ROW
MANSFIELD 02048",508-261-7345,mstaples@mansfieldma.com
Marblehead,Massachusetts,TRUE,"188 WASHINGTON ST
MARBLEHEAD, MA 01945",781-631-0528,townclerk@marblehead.org
Marion,Massachusetts,TRUE,"2 SPRING STREET
MARION, MA 02738",508-748-3502,lmagauran@marionma.gov
Marlborough,Massachusetts,TRUE,140 MAIN ST 01752,508-460-3775,cityclerk@marlborough-ma.gov
Marshfield,Massachusetts,TRUE,870 MORAINE ST 02050,781-834-5540,NCASPER@townofmarshfield.org
Mashpee,Massachusetts,TRUE,"16 GREAT NECK RD NO
MASHPEE, MA 02649",508-539-1418,ddami@mashpeema.gov
Mattapoisett,Massachusetts,TRUE,"16 MAIN ST
PO BOX 89 02739",508-758-4100,townclerk@mattapoisett.net
Maynard,Massachusetts,TRUE,"195 MAIN ST
MAYNARD 01754",978-897-1300,mjenkins@townofmaynard.net
Medfield,Massachusetts,TRUE,"459 MAIN ST
MEDFIELD 02052",508-906-3024,cmayer@medfield.net
Medford,Massachusetts,TRUE,85 GEORGE HASSETT DR 02155,781-393-2491,ahurtubise@medford-ma.gov
Medway,Massachusetts,TRUE,155 VILLAGE STREET 02053,508-533-3204,mwhite@townofmedway.org
Melrose,Massachusetts,TRUE,562 MAIN STREET 02176,781-979-4125,jperperian@cityofmelrose.org
Mendon,Massachusetts,TRUE,20 MAIN ST 01756,508-473-1085,townclerk@mendonma.gov
Merrimac,Massachusetts,TRUE,2 SCHOOL STREET 01860,978-346-8013,townclerk@townofmerrimac.com
Methuen,Massachusetts,TRUE,"41 PLEASANT ST
112 01844",978-983-8515,jjwilson@ci.methuen.ma.us
Middleborough,Massachusetts,TRUE,20 CENTRE ST 1ST FL 02346,508-946-2415,aferreira@middleborough.com
Middlefield,Massachusetts,TRUE,"PO BOX 265
MIDDLEFIELD,MA 01243",413-623-2079,suzemx@verizon.net
Middleton,Massachusetts,TRUE,"48 SOUTH MAIN ST
MIDDLETON, MA 01949",978-774-6927,ilene.twiss@middletonma.gov
Milford,Massachusetts,TRUE,52 MAIN ST 01757,508-634-2307,aneves@townofmilford.com
Millbury,Massachusetts,TRUE,"127 ELM ST.
MILLBURY, MA 01527",508-865-9110,jdavolio@townofmillbury.net
Millis,Massachusetts,TRUE,"900 MAIN STREET
MEMORIAL BUILDING 02054",508-376-7046,ljhardin@millisma.net
Millville,Massachusetts,TRUE,290 MAIN STREET 01529,508-883-5849,townclerk@millvillema.org
Milton,Massachusetts,TRUE,525 CANTON AVENUE 02186,617-898-4859,sgalvin@townofmilton.org
Monroe,Massachusetts,TRUE,"102 SCHOOL ST
MONROE 01350",413-424-5272,
Monson,Massachusetts,TRUE,110 MAIN ST 01057,413-267-4115,townclerk@monson-ma.gov
Montague,Massachusetts,TRUE,"ONE AVENUE A
TURNERS FALLS MA 01376",413-863-3200,townclerk@montague-ma.gov
Monterey,Massachusetts,TRUE,"P.O. BOX 277
MONTEREY 01245",413-528-1443,terry@montereyma.gov
Montgomery,Massachusetts,TRUE,58 NORTH RD 01085,413-862-3386,montgomerymass@rcn.com
Mount Washington,Massachusetts,TRUE,"118 EAST ST
MOUNT WASHINGTON 01258",413-528-2839,gailgarrett@townofmtwashington.com
Nahant,Massachusetts,TRUE,"334 NAHANT ROAD
NAHANT, MA 01908",781-581-0018,mbarile@nahant.org
Nantucket,Massachusetts,TRUE,16 BROAD STREET 02554,508-228-7216,townclerk@nantucket-ma.gov
Natick,Massachusetts,TRUE,13 EAST CENTRAL ST 01760,508-647-6432,vote@natickma.org
Needham,Massachusetts,TRUE,"P.O. BOX 920663
1471 HIGHLAND AVENUE 02492",781-455-7500,Teaton@needhamma.gov
New Ashford,Massachusetts,TRUE,188 MALLERY RD 01237,413-458-5491,loritro@verizon.net
New Bedford,Massachusetts,TRUE,"133 WILLIAM ST
ROOM 114 02740",508-979-1423,Manuel.DeBrito@newbedford-ma.gov
New Braintree,Massachusetts,TRUE,"20 MEMORIAL DRIVE
NEW BRAINTREE 01531",508-867-2071,townclerk@newbraintree.org
New Marlborough,Massachusetts,TRUE,"PO BOX 99
MILL RIVER 01244",413-229-8278,kchretien@newmarlboroughma.gov
New Salem,Massachusetts,TRUE,"24 SOUTH MAIN ST
NEW SALEM, MA 01355",978-544-2731,newsalemsclerk@aol.com
Newbury,Massachusetts,TRUE,12 KENT WAY 01922,978-465-0862,townclerk@townofnewbury.org
Newburyport,Massachusetts,TRUE,"60 PLEASANT STREET
P.O. BOX 550 01950",978-465-4407,rjones@cityofnewburyport.com
Newton,Massachusetts,TRUE,"1000 COMMONWEALTH AV
NEWTON MA 02459",617-796-1200,dolson@newtonma.gov
Norfolk,Massachusetts,TRUE,1 LIBERTY LANE 02056,508-528-1400,cgreene@norfolk.ma.us
North Adams,Massachusetts,TRUE,"10 MAIN STREET
NORTH ADAMS 01247",413-662-3000,city_clerk@northadams-ma.gov
North Andover,Massachusetts,TRUE,"120 MAIN STREET
NORTH ANDOVER, MA 01845",978-688-9501,treid@townofnorthandover.com
North Attleborough,Massachusetts,TRUE,43 S WASHINGTON ST 02760,508-699-0106,boardofelections@nattleboro.com
North Brookfield,Massachusetts,TRUE,"215 NORTH MAIN ST
NORTH BROOKFIELD 01535",508-867-0203,clerk@northbrookfield.net
North Reading,Massachusetts,TRUE,235 NORTH ST 01864,978-357-5218,bstats@northreadingma.gov
Northampton,Massachusetts,TRUE,210 MAIN STREET RM 8 01060,413-587-1291,ppowers@northamptonma.gov
Northborough,Massachusetts,TRUE,63 MAIN STREET 01532,508-393-5001,townclerk@town.northborough.ma.us
Northbridge,Massachusetts,TRUE,"7 MAIN STREET
WHITINSVILLE 01588",508-234-2001,dcedrone@northbridgemass.org
Northfield,Massachusetts,TRUE,69 MAIN ST 01360,413-498-2901,townclerk@townnfld.com
Norton,Massachusetts,TRUE,70 E MAIN ST 02766,508-285-0230,llonghurst@nortonmaus.com
Norwell,Massachusetts,TRUE,"345 MAIN STREET
P O BOX 295 02061",781-659-8072,panderson@townofnorwell.net
Norwood,Massachusetts,TRUE,"566 WASHINGTON ST
NORWOOD 02062",781-762-1240,mfolan@norwoodma.gov
Oak Bluffs,Massachusetts,TRUE,"P O BOX 2490
56 SCHOOL STREET 02557",508-693-3554,ljohnston@oakbluffsma.gov
Oakham,Massachusetts,TRUE,"2 COLDBROOK RD
UNIT # 4 01068",508-882-5549,christine.mardirosian@oakham-ma.gov
Orange,Massachusetts,TRUE,6 PROSPECT ST 01364,978-544-1100,townclerk@townoforange.org
Orleans,Massachusetts,TRUE,19 SCHOOL RD 02653,508-240-3700,cmay@town.orleans.ma.us
Otis,Massachusetts,TRUE,1 N.MAIN RD. BOX 237 01253,413-269-0100,tclerk.otis@gmail.com
Oxford,Massachusetts,TRUE,"325 MAIN ST
OXFORD, MA 01540",508-987-6032,lkelley@town.oxford.ma.us
Palmer,Massachusetts,TRUE,"4417 MAIN ST
PALMER TOWN BUILDING 01069",413-283-2608,scoache@townofpalmer.com
Paxton,Massachusetts,TRUE,697 PLEASANT ST 01612,508-799-7347,lbecker@townofpaxton.net
Peabody,Massachusetts,TRUE,24 LOWELL STREET 01960,978-538-5750,tim.spanos@peabody-ma.gov
Pelham,Massachusetts,TRUE,"351 AMHERST RD
PELHAM 01002",413-253-0512,pelhamtownclerk@comcast.net
Pembroke,Massachusetts,TRUE,"100 CENTER STREET
PEMBROKE 02359",781-293-7211,mstruzik@townofpembrokemass.org
Pepperell,Massachusetts,TRUE,1 MAIN STREET 01463,978-433-0339,Joanladik@town.pepperell.ma.us
Peru,Massachusetts,TRUE,"3 EAST MAIN ROAD
SUITE 102 01235",413-655-8312,townclerk@townofperuma.com
Petersham,Massachusetts,TRUE,"PO BOX 486
PETERSHAM MA 01366",978-724-6649,petershamtownclerk@verizon.net
Phillipston,Massachusetts,TRUE,"50 THE COMMON
PHILLIPSTON, MA 01331",978-249-1733,townclerk@phillipston-ma.gov
Pittsfield,Massachusetts,TRUE,70 ALLEN STREET 01201,413-499-9460,mbenjamin@cityofpittsfield.org
Plainfield,Massachusetts,TRUE,348 MAIN ST 01070,413-634-5420,townclerk@town.plainfield.ma.us
Plainville,Massachusetts,TRUE,"190 SOUTH ST
PLAINVILLE, MA 02762",508-576-8453,erobertson@plainville.ma.us
Plymouth,Massachusetts,TRUE,26 COURT STREET 02360,508-747-1620,lpizer@townhall.plymouth.ma.us
Plympton,Massachusetts,TRUE,5 PALMER ROAD 02367,781-585-3220,town_clerk@town.plympton.ma.us
Princeton,Massachusetts,TRUE,"6 TOWN HALL DRIVE
PRINCETON, MA 01541",978-464-2103,townclerk@town.princeton.ma.us
Provincetown,Massachusetts,TRUE,"260 COMMERCIAL ST
PROVINCETOWN, MA 02657",508-487-7013,dvanalstyne@provincetown-ma.gov
Quincy,Massachusetts,TRUE,"1305 HANCOCK STREET
QUINCY, MA 02169",617-376-1131,ncrispo@quincyma.gov
Randolph,Massachusetts,TRUE,41 SOUTH MAIN ST 02368,781-961-0900,csass@randolph-ma.gov
Raynham,Massachusetts,TRUE,"558 SOUTH MAIN ST.
RAYNHAM 02767",508-824-2700,msilvia@town.raynham.ma.us
Reading,Massachusetts,TRUE,"16 LOWELL STREET
READING, MA 01867",781-942-9050,lgemme@ci.reading.ma.us
Rehoboth,Massachusetts,TRUE,148R PECK ST 02769,508-252-6502,LSchwall@town.rehoboth.ma.us
Revere,Massachusetts,TRUE,"281 BROADWAY
P.O. BOX 246 02151",781-286-8200,dcolella@revere.org
Richmond,Massachusetts,TRUE,1529 STATE RD 01254,413-553-7793,clerk@richmondma.org
Rochester,Massachusetts,TRUE,1 CONSTITUTION WAY 02770,5087633871 x17,
Rockland,Massachusetts,TRUE,242 UNION ST 02370,781-871-1874,dshortall@rockland-ma.gov
Rockport,Massachusetts,TRUE,"P.O. BOX 429
ROCKPORT, MA 01966",978-546-6894,pbrown@rockportma.gov
Rowe,Massachusetts,TRUE,"PO BOX 308
ROWE 01367",413-339-5520,townclerk@rowe-ma.gov
Rowley,Massachusetts,TRUE,PO BOX 351 01969,978-948-2081,townclerk@townofrowley.org
Royalston,Massachusetts,TRUE,"P.O. BOX 127
ROYALSTON 01368",978-249-0493,townclerk@royalston-ma.gov
Russell,Massachusetts,TRUE,65 MAIN ST 01071,413-862-6207,RUSSELLTOWNCLERK@RUSSELLMA.NET
Rutland,Massachusetts,TRUE,250 MAIN STREET 01543,508-886-4100,acarlson@townofrutland.org
Salem,Massachusetts,TRUE,93 WASHINGTON ST 01970,978-745-9595,isimons@salem.com
Salisbury,Massachusetts,TRUE,5 BEACH ROAD 01952,978-462-1145,townclerk@salisburyma.gov
Sandisfield,Massachusetts,TRUE,"66 SANDISFIELD RD
P O BOX 163 01255",413-258-4711,sandisfieldtownclerk@verizon.net
Sandwich,Massachusetts,TRUE,145 MAIN ST 02563,508-888-0340,twhite@sandwichmass.org
Saugus,Massachusetts,TRUE,298 CENTRAL ST #7 01906,781-231-4104,eschena@saugus-ma.gov
Savoy,Massachusetts,TRUE,"720 MAIN RD
SAVOY MA 01256",413-743-3759,savoytownclerk@gmail.com
Scituate,Massachusetts,TRUE,600 C J CUSHING WAY 02066,781-545-8743,kgardner@scituatema.gov
Seekonk,Massachusetts,TRUE,100 PECK ST 02771,508-336-2920,fcraig@seekonk-ma.gov
Sharon,Massachusetts,TRUE,90 SOUTH MAIN ST 02067,781-784-1500,mchused@townofsharon.org
Sheffield,Massachusetts,TRUE,21 DEPOT SQUARE 01257,413-229-7000,fjoyce@sheffieldma.gov
Shelburne,Massachusetts,TRUE,"51 BRIDGE ST
SHELBURNE MA 01370",413-625-0300,townclerk@townofshelburnema.gov
Sherborn,Massachusetts,TRUE,19 WASHINGTON STREET 01770,508-651-7853,Carole.Marple@sherbornma.org
Shirley,Massachusetts,TRUE,7 KEADY WAY 01464,978-425-2600,clerk@shirley-ma.gov
Shrewsbury,Massachusetts,TRUE,100 MAPLE AVE 01545,508-841-8507,swright@shrewsburyma.gov
Shutesbury,Massachusetts,TRUE,"1 COOLEYVILLE ROAD
P.O. BOX 264 01072",413-259-1204,townclerk@shutesbury.org
Somerset,Massachusetts,TRUE,140 WOOD STREET 02726,508-646-2818,dberge@town.somerset.ma.us
Somerville,Massachusetts,TRUE,93 HIGHLAND AVE 02143,617-625-6600,nsalerno@somervillema.gov
South Hadley,Massachusetts,TRUE,"116 MAIN ST
ROOM 107 01075",413-538-5017,chamlin@southhadleyma.gov
Southampton,Massachusetts,TRUE,"210 COLLEGE HWY S2
SOUTHAMPTON, MASS 01073",413-527-8392,townclerk@townofsouthampton.org
Southborough,Massachusetts,TRUE,17 COMMON ST 01772,508-485-0710,townclerk@southboroughma.com
Southbridge,Massachusetts,TRUE,41 ELM ST 01550,508-764-5408,mbonadies@southbridgemass.org
Southwick,Massachusetts,TRUE,"454 COLLEGE HIGHWAY
SOUTHWICK MASS 01077",413-569-5504,treasurer@southwickma.net
Spencer,Massachusetts,TRUE,157 MAIN ST 01562,508-885-7500,ltorti@spencerma.gov
Springfield,Massachusetts,TRUE,"36 COURT ST
GROUND FLOOR ROOM 8 01103",413-787-6190,elections@springfieldcityhall.com
Sterling,Massachusetts,TRUE,"BUTTERICK BLDG, #113
1 PARK ST 01564",978-422-8111,townclerk@sterling-ma.gov
Stockbridge,Massachusetts,TRUE,PO BOX 417 01262,413-298-4170,clerk@townofstockbridge.com
Stoneham,Massachusetts,TRUE,35 CENTRAL ST 02180,781-279-2650,msagarino@stoneham-ma.gov
Stoughton,Massachusetts,TRUE,"10 PEARL ST.
STOUGHTON, MA 02072",781-341-1300,scarrara@stoughton-ma.gov
Stow,Massachusetts,TRUE,380 GREAT ROAD 01775-2127,978-897-5034,townclerk@stow-ma.gov
Sturbridge,Massachusetts,TRUE,308 MAIN STREET 01566,508-347-2510,townclerk@town.sturbridge.ma.us
Sudbury,Massachusetts,TRUE,322 CONCORD RD. 01776,978-639-3351,clerk@sudbury.ma.us
Sunderland,Massachusetts,TRUE,12 SCHOOL STREET 01375,413-665-1442,townclerk@townofsunderland.us
Sutton,Massachusetts,TRUE,"4 UXBRIDGE RD
SUTTON MA 01590",508-865-8725,l.caruso@town.sutton.ma.us
Swampscott,Massachusetts,TRUE,22 MONUMENT AVE 01907,781-596-4167,sduplin@swampscottma.gov
Swansea,Massachusetts,TRUE,"81 MAIN ST
SWANSEA 02777",508-678-9389,dpelland@town.swansea.ma.us
Taunton,Massachusetts,TRUE,"141 OAK ST
TEMPORARY CITY HALL 02780",508-821-1044,kandrade@taunton-ma.gov
Templeton,Massachusetts,TRUE,"160 PATRIOTS RD
P.O. BOX 620 01438",978-894-2758,townclerk@templeton1.org
Tewksbury,Massachusetts,TRUE,"1009 MAIN STREET
TOWN HALL 01876",978-640-4355,townclerk@tewksbury-ma.gov
Tisbury,Massachusetts,TRUE,"PO BOX 606
51 SPRING ST 02568",508-696-4215,hconklin@tisburyma.gov
Tolland,Massachusetts,TRUE,241 W GRANVILLE RD 01034,413-258-4794,townclerk@tolland-ma.gov
Topsfield,Massachusetts,TRUE,8 WEST COMMON ST 01983,978-887-1505,clerk@topsfield-ma.gov
Townsend,Massachusetts,TRUE,"272 MAIN ST
TOWNSEND , MA 01469",978-597-1704,kspofford@townsend.ma.us
Truro,Massachusetts,TRUE,"PO BOX 2012
24 TOWN HALL RD 02666-2012",508-349-7004,cslade@truro-ma.gov
Tyngsborough,Massachusetts,TRUE,25 BRYANTS LANE 01879,978-649-2300,jshifres@tyngsboroughma.gov
Tyringham,Massachusetts,TRUE,"P.O. BOX 442
116 MAIN RD 01264",413-243-1749,TOWNCLERK@BCN.NET
Upton,Massachusetts,TRUE,"1 MAIN ST
BOX 11 01568",508-529-3565,kmcelreath@uptonma.gov
Uxbridge,Massachusetts,TRUE,"21 SOUTH MAIN ST
UXBRIDGE, MA 01569",508-278-8600,kcote@uxbridge-ma.gov
Wakefield,Massachusetts,TRUE,1 LAFAYETTE ST. 01880,781-246-6383,bsheeran@wakefield.ma.us
Wales,Massachusetts,TRUE,"3 HOLLOW ROAD
PO BOX 834 01081-0834",413-245-7571,townclerk@townofwales.net
Walpole,Massachusetts,TRUE,135 SCHOOL ST 02081,508-660-7296,townclerk@walpole-ma.gov
Waltham,Massachusetts,TRUE,610 MAIN STREET 02452,781-314-3120,eeaton@city.waltham.ma.us
Ware,Massachusetts,TRUE,"126 MAIN ST.
WARE, MA 01082",413-967-9648,ntalbot@townofware.com
Wareham,Massachusetts,TRUE,54 MARION ROAD 02571,508-291-3100,mbissonnette@wareham.ma.us
Warren,Massachusetts,TRUE,"48 HIGH STREET
PO BOX 603 01083",413-436-5701,lowell@warren-ma.gov
Warwick,Massachusetts,TRUE,"12 ATHOL RD
WARWICK, MA 01378",978-544-8304,townclerk@town.warwick.ma.us
Washington,Massachusetts,TRUE,8 SUMMIT HILL RD 01223,413-623-8878,washingtontownclerk@yahoo.com
Watertown,Massachusetts,TRUE,"149 MAIN STREET
WATERTOWN 02472",617-972-6486,jflynn@watertown-ma.gov
Wayland,Massachusetts,TRUE,"41 COCHITUATE ROAD
WAYLAND, MA 01778",508-358-3631,aludwig@wayland.ma.us
Webster,Massachusetts,TRUE,"350 MAIN ST SUITE 3
WEBSTER 01570",508-949-3800,bcraver@webster-ma.gov
Wellesley,Massachusetts,TRUE,525 WASHINGTON ST 02482,781-431-1019,kckato@wellesleyma.gov
Wellfleet,Massachusetts,TRUE,300 MAIN STREET 02667,508-349-0301,jennifer.congel@wellfleet-ma.gov
Wendell,Massachusetts,TRUE,"59 LOCKES VILLAGE RD
WENDELL 01379",978-544-3395,townclerk@wendellmass.us
Wenham,Massachusetts,TRUE,"138 MAIN STREET
WENHAM MA 01984",978-468-5520,dbucco@wenhamma.gov
West Boylston,Massachusetts,TRUE,"140 WORCESTER ST
MASSACHUSETTS 01583",774-261-4021,enovia@westboylston-ma.gov
West Bridgewater,Massachusetts,TRUE,"65 NORTH MAIN ST
WEST BRIDGEWATER 02379",508-894-1167,aiannitelli@wbridgewater.com
West Brookfield,Massachusetts,TRUE,"2 E. MAIN ST
WEST BROOKFIELD 01585",508-867-1421,sallen@wbrookfield.com
West Newbury,Massachusetts,TRUE,"381 MAIN ST
TOWN OFFICE BUILDING 01985",978-363-1100,mmccarron@wnewbury.org
West Springfield,Massachusetts,TRUE,"26 CENTRAL ST
SUITE 8 01089",413-263-3012,ofrizzell@tows.org
West Stockbridge,Massachusetts,TRUE,"21 STATE LINE RD
WEST STOCKBRIDGE 01266",413-232-0300,clerk@weststockbridge-ma.gov
West Tisbury,Massachusetts,TRUE,BOX 278 02575,508-696-0148,townclerk@westtisbury-ma.gov
Westborough,Massachusetts,TRUE,"34 WEST MAIN STREET
WESTBOROUGH, MA 01581",508-366-3020,wmickel@town.westborough.ma.us
Westfield,Massachusetts,TRUE,"59 COURT STREET
ROOM 210 01085",413-572-6266,k.fanion@cityofwestfield.org
Westford,Massachusetts,TRUE,"55 MAIN STREET
WESTFORD, MA 01886",978-692-5515,townclerk@westfordma.gov
Westhampton,Massachusetts,TRUE,"ONE SOUTH RD
WESTHAMPTON 01027",413-203-3080,clerk@westhamptonma.org
Westminster,Massachusetts,TRUE,"11 SOUTH STREET
WESTMINSTER 01473",978-874-7406,esheehan@westminster-ma.gov
Weston,Massachusetts,TRUE,"P.O. BOX 378
11 TOWN HOUSE ROAD 02493",781-786-5010,davenport.d@westonmass.org
Westport,Massachusetts,TRUE,"816 MAIN RD
WESTPORT 02790",508-636-1001,clerk@westport-ma.gov
Westwood,Massachusetts,TRUE,580 HIGH ST 02090,781-326-3964,dpowers@townhall.westwood.ma.us
Weymouth,Massachusetts,TRUE,75 MIDDLE ST. 02189,781-340-5017,kderee@weymouth.ma.us
Whately,Massachusetts,TRUE,4 SANDY LANE 01093,413-665-4400,townclerk@whately.org
Whitman,Massachusetts,TRUE,"P O BOX 426
54 SOUTH AVENUE 02382",781-618-9710,dawn.varley@whitman-ma.gov
Wilbraham,Massachusetts,TRUE,240 SPRINGFIELD ST 01095,413-596-2800,ctardif@wilbraham-ma.gov
Williamsburg,Massachusetts,TRUE,"141 MAIN ST, POB 447
HAYDENVILLE 01039-0447",413-268-8402,townclerk@burgy.org
Williamstown,Massachusetts,TRUE,"31 NORTH ST
WILLIAMSTOWN 01267",413-458-9341,mkennedy@williamstown.net
Wilmington,Massachusetts,TRUE,121 GLEN RD 01887,978-658-2030,ctouma-conway@wilmingtonma.gov
Winchendon,Massachusetts,TRUE,"109 FRONT ST
DEPT. 3 01475",978-297-2766,wstevens@townofwinchendon.com
Winchester,Massachusetts,TRUE,"71 MOUNT VERNON
TOWN HALL 01890",781-721-7130,townclerk@winchester.us
Windsor,Massachusetts,TRUE,"1890 RTE 9, SUITE 2
WINDSOR 01270",413-684-3811,windsortownclerk@gmail.com
Winthrop,Massachusetts,TRUE,"1 METCALF SQUARE
TOWN HALL 02152",617-846-1742,cvitale@town.winthrop.ma.us
Woburn,Massachusetts,TRUE,10 COMMON ST 01801,781-897-5850,wcampbell@cityofwoburn.com
Worcester,Massachusetts,TRUE,455 MAIN ST RM 208 01608,508-799-1134,elections@worcesterma.gov
Worthington,Massachusetts,TRUE,"PO BOX 247
160 HUNTINGTON RD 01098",413-238-5577,townclerk@worthington-ma.us
Wrentham,Massachusetts,TRUE,"79 SOUTH ST
WRENTHAM, MA 02093",508-384-5415,cthompson@wrentham.ma.us
Yarmouth,Massachusetts,TRUE,"1146 ROUTE 28
SO. YARMOUTH, MA 02664",508-398-2231,pgaudet@yarmouth.ma.us